{"type": "FeatureCollection", "name": "cotas_menor_49m", "features": [{"type": "Feature", "properties": {"id": 1, "rango": "Menor a 49 m", "cota_mop": "Menor a 49 m", "altura_hidrometro_barranqueras": "Menor a 7,2 m", "color": "#F0A0F0", "area_ha": 2.71}, "geometry": {"type": "Polygon", "coordinates": [[[-59.0339902, -27.4572231], [-59.0358616, -27.458895], [-59.0358894, -27.4597276], [-59.0355445, -27.4597785], [-59.03501, -27.4595702], [-59.0341964, -27.4587536], [-59.0339632, -27.458276], [-59.0338852, -27.4574883], [-59.0339902, -27.4572231]]]}}, {"type": "Feature", "properties": {"id": 2, "rango": "Menor a 49 m", "cota_mop": "Menor a 49 m", "altura_hidrometro_barranqueras": "Menor a 7,2 m", "color": "#F0A0F0", "area_ha": 272.56}, "geometry": {"type": "Polygon", "coordinates": [[[-59.0237542, -27.4812868], [-59.0228433, -27.4823578], [-59.0141052, -27.4900786], [-59.0121919, -27.4919593], [-59.0064198, -27.4969446], [-59.0049698, -27.4979828], [-59.0036284, -27.4966947], [-59.0029499, -27.4963577], [-59.0007936, -27.4962264], [-59.0000626, -27.496022], [-58.9991418, -27.4955585], [-58.9982346, -27.4945684], [-58.9971789, -27.4936253], [-58.9966465, -27.4933292], [-58.9961689, -27.4928127], [-58.9960797, -27.4924638], [-58.9962004, -27.4915843], [-58.9968691, -27.4903867], [-59.0009378, -27.4867517], [-59.0024291, -27.4860196], [-59.0032808, -27.4853445], [-59.0041002, -27.4840122], [-59.0052555, -27.4829801], [-59.0062669, -27.4818193], [-59.0068104, -27.4816767], [-59.0077424, -27.4817015], [-59.0089143, -27.4819406], [-59.0099332, -27.4824022], [-59.0108652, -27.482427], [-59.0112603, -27.4823312], [-59.0132583, -27.4809749], [-59.0149864, -27.4786594], [-59.0156896, -27.4780311], [-59.0161852, -27.4778456], [-59.0169185, -27.4779622], [-59.019434, -27.4794018], [-59.0224495, -27.4804803], [-59.0237542, -27.4812868]]]}}, {"type": "Feature", "properties": {"id": 3, "rango": "Menor a 49 m", "cota_mop": "Menor a 49 m", "altura_hidrometro_barranqueras": "Menor a 7,2 m", "color": "#F0A0F0", "area_ha": 64.6}, "geometry": {"type": "Polygon", "coordinates": [[[-58.9929123, -27.4838899], [-58.9934994, -27.4839656], [-58.9939133, -27.4850534], [-58.9939006, -27.4874654], [-58.994607, -27.488635], [-58.9952998, -27.490331], [-58.9951792, -27.4912105], [-58.9938072, -27.4930364], [-58.993787, -27.4938261], [-58.9939789, -27.4939976], [-58.995393, -27.4943634], [-58.9968326, -27.4956495], [-58.9974497, -27.49647], [-58.9978134, -27.4976027], [-58.997647, -27.4983516], [-58.9969415, -27.4990676], [-58.9962638, -27.5006162], [-58.9954121, -27.5012914], [-58.9937356, -27.5015887], [-58.9930849, -27.5020843], [-58.9929799, -27.5023496], [-58.9929665, -27.5028761], [-58.9933414, -27.50357], [-58.9960309, -27.505883], [-58.9954124, -27.5070358], [-58.9948553, -27.5077049], [-58.9943553, -27.5080659], [-58.9937112, -27.5082983], [-58.9929255, -27.5083144], [-58.9923407, -27.5081509], [-58.9914289, -27.5073364], [-58.9914334, -27.5071609], [-58.9916846, -27.5069365], [-58.9922281, -27.5067938], [-58.9928287, -27.5063431], [-58.9929538, -27.5052881], [-58.9925812, -27.5045064], [-58.9917654, -27.5037776], [-58.9913882, -27.5031714], [-58.9911663, -27.5022551], [-58.9912322, -27.501596], [-58.9913896, -27.5011981], [-58.991844, -27.5007065], [-58.9942236, -27.4997809], [-58.9949726, -27.4992832], [-58.9956391, -27.4981733], [-58.9958055, -27.4974245], [-58.9956226, -27.496902], [-58.9953826, -27.4966877], [-58.9927577, -27.4956888], [-58.9920859, -27.4950887], [-58.991567, -27.4942661], [-58.9915827, -27.4936519], [-58.9920962, -27.4927644], [-58.9923264, -27.4914441], [-58.9927919, -27.4905138], [-58.9928623, -27.4896792], [-58.991931, -27.4857955], [-58.9915081, -27.4850587], [-58.992314, -27.4842529], [-58.9929123, -27.4838899]]]}}, {"type": "Feature", "properties": {"id": 4, "rango": "Menor a 49 m", "cota_mop": "Menor a 49 m", "altura_hidrometro_barranqueras": "Menor a 7,2 m", "color": "#F0A0F0", "area_ha": 3.36}, "geometry": {"type": "Polygon", "coordinates": [[[-59.0230759, -27.4559989], [-59.0231127, -27.4564805], [-59.02301, -27.456658], [-59.0219071, -27.4575575], [-59.0212474, -27.4584042], [-59.0209572, -27.4582347], [-59.0211469, -27.4584939], [-59.0194458, -27.4597565], [-59.0192538, -27.459585], [-59.0194615, -27.4591422], [-59.0200643, -27.4586037], [-59.0209092, -27.4581918], [-59.0213815, -27.4569982], [-59.0222879, -27.4561027], [-59.0230759, -27.4559989]]]}}, {"type": "Feature", "properties": {"id": 5, "rango": "Menor a 49 m", "cota_mop": "Menor a 49 m", "altura_hidrometro_barranqueras": "Menor a 7,2 m", "color": "#F0A0F0", "area_ha": 5.62}, "geometry": {"type": "Polygon", "coordinates": [[[-59.0169505, -27.4421795], [-59.0174348, -27.4424327], [-59.0181066, -27.4430329], [-59.0184358, -27.4435962], [-59.0192973, -27.4444556], [-59.0205104, -27.4450009], [-59.0207481, -27.445303], [-59.0204512, -27.4453968], [-59.0201956, -27.4457967], [-59.0197525, -27.4458496], [-59.0189757, -27.4455146], [-59.0180483, -27.4453143], [-59.0179402, -27.4437817], [-59.0174559, -27.4435285], [-59.0166199, -27.4435895], [-59.0164257, -27.4435057], [-59.0164939, -27.4427589], [-59.0169505, -27.4421795]]]}}, {"type": "Feature", "properties": {"id": 6, "rango": "Menor a 49 m", "cota_mop": "Menor a 49 m", "altura_hidrometro_barranqueras": "Menor a 7,2 m", "color": "#F0A0F0", "area_ha": 9.22}, "geometry": {"type": "Polygon", "coordinates": [[[-58.9616618, -27.4871152], [-58.962048, -27.4873704], [-58.962126, -27.4881581], [-58.9620878, -27.4896498], [-58.9618667, -27.4906191], [-58.9617115, -27.4909292], [-58.9613097, -27.4912882], [-58.9606656, -27.4915206], [-58.9601745, -27.4915306], [-58.9598364, -27.4913183], [-58.9598768, -27.4897388], [-58.9596023, -27.4889551], [-58.9596616, -27.4885593], [-58.9607187, -27.4875291], [-58.961317, -27.4871661], [-58.9616618, -27.4871152]]]}}, {"type": "Feature", "properties": {"id": 7, "rango": "Menor a 49 m", "cota_mop": "Menor a 49 m", "altura_hidrometro_barranqueras": "Menor a 7,2 m", "color": "#F0A0F0", "area_ha": 2.63}, "geometry": {"type": "Polygon", "coordinates": [[[-58.9994685, -27.444422], [-58.9995097, -27.4447282], [-58.99888, -27.4463196], [-58.9982772, -27.4468582], [-58.9979346, -27.4468213], [-58.9977906, -27.4466927], [-58.9980485, -27.4462051], [-58.9980297, -27.4450215], [-58.9987307, -27.444481], [-58.9994685, -27.444422]]]}}, {"type": "Feature", "properties": {"id": 8, "rango": "Menor a 49 m", "cota_mop": "Menor a 49 m", "altura_hidrometro_barranqueras": "Menor a 7,2 m", "color": "#F0A0F0", "area_ha": 9.49}, "geometry": {"type": "Polygon", "coordinates": [[[-58.9692342, -27.4674032], [-58.9695678, -27.4677911], [-58.9697831, -27.4689706], [-58.9697149, -27.4697175], [-58.969352, -27.4704704], [-58.9688999, -27.4708742], [-58.9671073, -27.4718756], [-58.9664176, -27.4719774], [-58.9660772, -27.4718528], [-58.9659354, -27.4716364], [-58.9659467, -27.4711977], [-58.9663485, -27.4708386], [-58.9672415, -27.4704696], [-58.9675451, -27.4701126], [-58.9676792, -27.4687066], [-58.9680946, -27.4678212], [-58.9686951, -27.4673704], [-58.9692342, -27.4674032]]]}}, {"type": "Feature", "properties": {"id": 9, "rango": "Menor a 49 m", "cota_mop": "Menor a 49 m", "altura_hidrometro_barranqueras": "Menor a 7,2 m", "color": "#F0A0F0", "area_ha": 2.61}, "geometry": {"type": "Polygon", "coordinates": [[[-58.95532, -27.479834], [-58.9555097, -27.4800932], [-58.9553913, -27.4808849], [-58.9545899, -27.4815152], [-58.9538041, -27.4815312], [-58.9535642, -27.4813169], [-58.9535776, -27.4807904], [-58.9537808, -27.4805232], [-58.9546827, -27.4798031], [-58.95532, -27.479834]]]}}, {"type": "Feature", "properties": {"id": 10, "rango": "Menor a 49 m", "cota_mop": "Menor a 49 m", "altura_hidrometro_barranqueras": "Menor a 7,2 m", "color": "#F0A0F0", "area_ha": 41.06}, "geometry": {"type": "Polygon", "coordinates": [[[-59.0064863, -27.4310359], [-59.0072196, -27.4311524], [-59.0079941, -27.4315751], [-59.0082798, -27.4319201], [-59.0084103, -27.4325752], [-59.0079559, -27.4330668], [-59.0078945, -27.4335504], [-59.0079882, -27.4337239], [-59.0075684, -27.4347849], [-59.0069656, -27.4353234], [-59.0063238, -27.4354681], [-59.0061731, -27.4356027], [-59.0061507, -27.4364802], [-59.0064206, -27.4374394], [-59.0068068, -27.4376946], [-59.0075925, -27.4376786], [-59.0087824, -27.4372158], [-59.00973, -27.4366264], [-59.0106028, -27.437047], [-59.0112723, -27.437735], [-59.010962, -27.4383552], [-59.0109485, -27.4388817], [-59.0103982, -27.4392876], [-59.0090599, -27.4397973], [-59.0085186, -27.4398522], [-59.0076893, -27.4396499], [-59.0067072, -27.4396699], [-59.0059627, -27.4399921], [-59.0053756, -27.4399164], [-59.0048132, -27.4388754], [-59.0043836, -27.4384019], [-59.0034674, -27.4377628], [-59.0033301, -27.437371], [-59.0033136, -27.4360996], [-59.0026785, -27.435981], [-59.0023929, -27.4356361], [-59.0026252, -27.4342281], [-59.0036164, -27.4338571], [-59.0059773, -27.4317479], [-59.0064863, -27.4310359]]]}}, {"type": "Feature", "properties": {"id": 11, "rango": "Menor a 49 m", "cota_mop": "Menor a 49 m", "altura_hidrometro_barranqueras": "Menor a 7,2 m", "color": "#F0A0F0", "area_ha": 3.23}, "geometry": {"type": "Polygon", "coordinates": [[[-58.9862497, -27.4488578], [-58.9868256, -27.4493722], [-58.9866682, -27.4497701], [-58.9851312, -27.4503715], [-58.9850285, -27.450549], [-58.9849903, -27.4520407], [-58.9844557, -27.4518324], [-58.9839803, -27.4512282], [-58.9840831, -27.4510507], [-58.9849303, -27.450551], [-58.984898, -27.4498939], [-58.9845711, -27.4492429], [-58.9856537, -27.4491331], [-58.9862497, -27.4488578]]]}}, {"type": "Feature", "properties": {"id": 12, "rango": "Menor a 49 m", "cota_mop": "Menor a 49 m", "altura_hidrometro_barranqueras": "Menor a 7,2 m", "color": "#F0A0F0", "area_ha": 7.72}, "geometry": {"type": "Polygon", "coordinates": [[[-58.9766569, -27.4554559], [-58.977301, -27.4552234], [-58.9780867, -27.4552074], [-58.9787675, -27.4554566], [-58.9798734, -27.4563549], [-58.9800084, -27.4568345], [-58.9799492, -27.4572303], [-58.9792347, -27.4582974], [-58.9784032, -27.4581828], [-58.9782158, -27.4578358], [-58.9767739, -27.4566374], [-58.9764013, -27.4558557], [-58.9764058, -27.4556802], [-58.9766569, -27.4554559]]]}}, {"type": "Feature", "properties": {"id": 13, "rango": "Menor a 49 m", "cota_mop": "Menor a 49 m", "altura_hidrometro_barranqueras": "Menor a 7,2 m", "color": "#F0A0F0", "area_ha": 8.09}, "geometry": {"type": "Polygon", "coordinates": [[[-58.9827925, -27.4458588], [-58.9842366, -27.4469695], [-58.9838804, -27.4474591], [-58.9838992, -27.4486427], [-58.9827184, -27.4487545], [-58.9820631, -27.4494256], [-58.9814783, -27.4492622], [-58.9810442, -27.4489641], [-58.980811, -27.4484865], [-58.9808222, -27.4480478], [-58.9814887, -27.4469379], [-58.9827925, -27.4458588]]]}}, {"type": "Feature", "properties": {"id": 14, "rango": "Menor a 49 m", "cota_mop": "Menor a 49 m", "altura_hidrometro_barranqueras": "Menor a 7,2 m", "color": "#F0A0F0", "area_ha": 6.89}, "geometry": {"type": "Polygon", "coordinates": [[[-59.0056672, -27.4227648], [-59.0062932, -27.4232344], [-59.0072162, -27.4236102], [-59.0075041, -27.4238674], [-59.0075431, -27.4242613], [-59.0072328, -27.4248815], [-59.006534, -27.4253343], [-59.0063308, -27.4256016], [-59.0059613, -27.4266177], [-59.0053105, -27.4271133], [-59.0047692, -27.4271682], [-59.004479, -27.4269988], [-59.004392, -27.426562], [-59.0049468, -27.4259806], [-59.0054648, -27.4249177], [-59.0054873, -27.4240402], [-59.0052698, -27.4229484], [-59.0054707, -27.4227689], [-59.0056672, -27.4227648]]]}}, {"type": "Feature", "properties": {"id": 15, "rango": "Menor a 49 m", "cota_mop": "Menor a 49 m", "altura_hidrometro_barranqueras": "Menor a 7,2 m", "color": "#F0A0F0", "area_ha": 2.62}, "geometry": {"type": "Polygon", "coordinates": [[[-59.0022716, -27.4250267], [-59.0027147, -27.4249738], [-59.0033408, -27.4254434], [-59.0037615, -27.426268], [-59.0038005, -27.4266618], [-59.0036498, -27.4267964], [-59.0030102, -27.4268533], [-59.0022357, -27.4264307], [-59.0019545, -27.4259102], [-59.0020182, -27.4253388], [-59.0022716, -27.4250267]]]}}, {"type": "Feature", "properties": {"id": 16, "rango": "Menor a 49 m", "cota_mop": "Menor a 49 m", "altura_hidrometro_barranqueras": "Menor a 7,2 m", "color": "#F0A0F0", "area_ha": 68.88}, "geometry": {"type": "Polygon", "coordinates": [[[-58.9865315, -27.414824], [-58.9872302, -27.4143712], [-58.9880384, -27.4134777], [-58.988534, -27.4132922], [-58.9888354, -27.4130229], [-58.9892822, -27.410909], [-58.989954, -27.4115092], [-58.9899728, -27.4126927], [-58.9903567, -27.4130357], [-58.9916178, -27.4136239], [-58.9927942, -27.4136875], [-58.9936848, -27.4134063], [-58.9942239, -27.4134391], [-58.994236, -27.4148859], [-58.9949558, -27.415529], [-58.9954657, -27.4167025], [-58.9973094, -27.4175419], [-58.9981911, -27.4176116], [-58.9984902, -27.4174301], [-58.9985539, -27.4168587], [-58.998323, -27.4162934], [-58.9978934, -27.4158198], [-58.996678, -27.4153623], [-58.9961981, -27.4149336], [-58.9959829, -27.413754], [-58.998589, -27.4135692], [-58.9990846, -27.4133837], [-58.9998089, -27.4138513], [-59.0000788, -27.4148105], [-59.0010296, -27.4160189], [-59.0011211, -27.4162801], [-59.0009802, -27.4179493], [-59.0016955, -27.4187678], [-59.0020112, -27.4198577], [-59.0031651, -27.4207988], [-59.0061117, -27.4207386], [-59.0061484, -27.4212202], [-59.0053425, -27.422026], [-59.0048034, -27.4219932], [-59.0032956, -27.4214539], [-59.0017219, -27.4215737], [-59.001386, -27.4212736], [-59.0014632, -27.4201758], [-59.001173, -27.4200063], [-59.0004855, -27.4200204], [-59.0001451, -27.4198958], [-58.9999119, -27.4194182], [-58.9993818, -27.4190343], [-58.9989432, -27.4189117], [-58.9977623, -27.4190236], [-58.9971775, -27.4188601], [-58.9946216, -27.419], [-58.994183, -27.4188774], [-58.9937053, -27.4183609], [-58.9927321, -27.41803], [-58.9921563, -27.4175156], [-58.9918639, -27.4174338], [-58.9911764, -27.4174479], [-58.9908292, -27.4175865], [-58.9895156, -27.417131], [-58.9879231, -27.4160672], [-58.9868037, -27.4156954], [-58.98647, -27.4153076], [-58.9865315, -27.414824]]]}}, {"type": "Feature", "properties": {"id": 17, "rango": "Menor a 49 m", "cota_mop": "Menor a 49 m", "altura_hidrometro_barranqueras": "Menor a 7,2 m", "color": "#F0A0F0", "area_ha": 4.3}, "geometry": {"type": "Polygon", "coordinates": [[[-58.9846973, -27.4097748], [-58.9851606, -27.4089322], [-58.9861773, -27.4094815], [-58.987155, -27.4096369], [-58.9885189, -27.4100475], [-58.9890422, -27.4106946], [-58.988348, -27.4109719], [-58.9879071, -27.4109371], [-58.9871281, -27.4106899], [-58.9862096, -27.4101386], [-58.9848301, -27.4103421], [-58.9846884, -27.4101258], [-58.9846973, -27.4097748]]]}}, {"type": "Feature", "properties": {"id": 18, "rango": "Menor a 49 m", "cota_mop": "Menor a 49 m", "altura_hidrometro_barranqueras": "Menor a 7,2 m", "color": "#F0A0F0", "area_ha": 6.88}, "geometry": {"type": "Polygon", "coordinates": [[[-58.9774564, -27.4146147], [-58.9772645, -27.4144432], [-58.9772322, -27.4137861], [-58.9768115, -27.4129615], [-58.977679, -27.4116721], [-58.9799124, -27.4107057], [-58.9808601, -27.4101162], [-58.9809628, -27.4099387], [-58.9822374, -27.4100004], [-58.9822764, -27.4103943], [-58.9819773, -27.4105758], [-58.9814359, -27.4106307], [-58.9809013, -27.4104224], [-58.980408, -27.4105201], [-58.9802071, -27.4106996], [-58.9800932, -27.4113159], [-58.9797918, -27.4115851], [-58.9785997, -27.4121357], [-58.9784947, -27.4124009], [-58.9785638, -27.4135396], [-58.9784476, -27.4142436], [-58.9781439, -27.4146006], [-58.977847, -27.4146944], [-58.9774564, -27.4146147]]]}}, {"type": "Feature", "properties": {"id": 19, "rango": "Menor a 49 m", "cota_mop": "Menor a 49 m", "altura_hidrometro_barranqueras": "Menor a 7,2 m", "color": "#F0A0F0", "area_ha": 19.06}, "geometry": {"type": "Polygon", "coordinates": [[[-58.9455019, -27.4319304], [-58.9454696, -27.4312733], [-58.945867, -27.4310898], [-58.9464697, -27.4305513], [-58.9469855, -27.429576], [-58.9478395, -27.4288131], [-58.948401, -27.4279685], [-58.9484669, -27.4273094], [-58.9481858, -27.4267889], [-58.9475095, -27.4263642], [-58.9469201, -27.4263763], [-58.9462259, -27.4266535], [-58.9456868, -27.4266207], [-58.9451222, -27.4256675], [-58.9464125, -27.425115], [-58.9478378, -27.425042], [-58.9483334, -27.4248565], [-58.9489617, -27.4252383], [-58.9492909, -27.4258016], [-58.9505865, -27.4269591], [-58.9511691, -27.4272104], [-58.9519548, -27.4271943], [-58.9524916, -27.4273149], [-58.9504891, -27.4288467], [-58.9491966, -27.429487], [-58.9484888, -27.4302908], [-58.9474474, -27.4307067], [-58.945897, -27.4318346], [-58.9455019, -27.4319304]]]}}, {"type": "Feature", "properties": {"id": 20, "rango": "Menor a 49 m", "cota_mop": "Menor a 49 m", "altura_hidrometro_barranqueras": "Menor a 7,2 m", "color": "#F0A0F0", "area_ha": 9.31}, "geometry": {"type": "Polygon", "coordinates": [[[-58.9320662, -27.4314154], [-58.9341468, -27.4306713], [-58.9346948, -27.4303532], [-58.9349482, -27.4300411], [-58.9358936, -27.4295394], [-58.9369628, -27.4299561], [-58.9377253, -27.4289319], [-58.93852, -27.4285649], [-58.9389496, -27.4290385], [-58.9390411, -27.4292997], [-58.9381459, -27.4297565], [-58.9381347, -27.4301953], [-58.9385508, -27.4311953], [-58.9385396, -27.4316341], [-58.9382382, -27.4319033], [-58.9376032, -27.4317847], [-58.9369816, -27.4311397], [-58.9368031, -27.4304417], [-58.9360017, -27.431072], [-58.9348163, -27.4313593], [-58.9342683, -27.4316774], [-58.9326488, -27.4316666], [-58.9320662, -27.4314154]]]}}, {"type": "Feature", "properties": {"id": 21, "rango": "Menor a 49 m", "cota_mop": "Menor a 49 m", "altura_hidrometro_barranqueras": "Menor a 7,2 m", "color": "#F0A0F0", "area_ha": 3.8}, "geometry": {"type": "Polygon", "coordinates": [[[-58.918037, -27.4368324], [-58.9183384, -27.4365632], [-58.9217003, -27.4356175], [-58.9230408, -27.4350201], [-58.9240777, -27.4347797], [-58.9239638, -27.4353959], [-58.9236624, -27.4356652], [-58.9222281, -27.4360891], [-58.9220272, -27.4362686], [-58.9205517, -27.4363864], [-58.9187703, -27.436949], [-58.918037, -27.4368324]]]}}, {"type": "Feature", "properties": {"id": 22, "rango": "Menor a 49 m", "cota_mop": "Menor a 49 m", "altura_hidrometro_barranqueras": "Menor a 7,2 m", "color": "#F0A0F0", "area_ha": 1.32}, "geometry": {"type": "Polygon", "coordinates": [[[-58.9141361, -27.4377453], [-58.9141473, -27.4373065], [-58.9155816, -27.4368826], [-58.9159722, -27.4369623], [-58.9157143, -27.4374499], [-58.9152645, -27.4377661], [-58.914424, -27.4380025], [-58.9141361, -27.4377453]]]}}, {"type": "Feature", "properties": {"id": 23, "rango": "Menor a 49 m", "cota_mop": "Menor a 49 m", "altura_hidrometro_barranqueras": "Menor a 7,2 m", "color": "#F0A0F0", "area_ha": 4633.11}, "geometry": {"type": "Polygon", "coordinates": [[[-58.9190742, -27.5344226], [-58.9184024, -27.5338224], [-58.9180777, -27.5330836], [-58.9180979, -27.5322939], [-58.9183581, -27.5317185], [-58.9187119, -27.5313166], [-58.9193604, -27.5309087], [-58.9209454, -27.5303501], [-58.9214477, -27.5299014], [-58.9245921, -27.5278639], [-58.9252953, -27.5272356], [-58.9268637, -27.5254057], [-58.9294009, -27.5240823], [-58.9327664, -27.5210755], [-58.9341181, -27.5200394], [-58.9354811, -27.5185645], [-58.9358942, -27.5177667], [-58.9361633, -27.5168404], [-58.9361324, -27.51421], [-58.9367209, -27.5123124], [-58.9365236, -27.5104308], [-58.9365528, -27.5092901], [-58.9367695, -27.5084964], [-58.9367004, -27.5073577], [-58.9355802, -27.5051003], [-58.9349398, -27.5032717], [-58.9330818, -27.5010732], [-58.9328988, -27.5005508], [-58.9318521, -27.4992566], [-58.9311, -27.4979565], [-58.9299963, -27.4969704], [-58.9303067, -27.4963502], [-58.9301327, -27.4954767], [-58.9290815, -27.4943581], [-58.9282792, -27.4931028], [-58.9277971, -27.4927619], [-58.927354, -27.4928148], [-58.9260149, -27.4914389], [-58.9254045, -27.4903551], [-58.9247349, -27.4896671], [-58.9246044, -27.489012], [-58.9233635, -27.4876342], [-58.9237196, -27.4871445], [-58.9237264, -27.4868813], [-58.9234887, -27.4865792], [-58.9230335, -27.4851853], [-58.9221352, -27.4838443], [-58.9213652, -27.4832461], [-58.9208921, -27.4825541], [-58.92017, -27.4819988], [-58.9198566, -27.4808212], [-58.919013, -27.4792599], [-58.9182452, -27.4785739], [-58.9184004, -27.4782638], [-58.9183179, -27.4776516], [-58.9167411, -27.4759736], [-58.9161083, -27.4757673], [-58.91548, -27.4753854], [-58.9154365, -27.4751671], [-58.9156397, -27.4748998], [-58.9156989, -27.474504], [-58.9156074, -27.4742427], [-58.9150316, -27.4737283], [-58.9140584, -27.4733974], [-58.9134825, -27.4728829], [-58.9132358, -27.4729318], [-58.9128475, -27.4727643], [-58.9123196, -27.4722927], [-58.911929, -27.472213], [-58.91162, -27.47086], [-58.9111949, -27.4702109], [-58.9107608, -27.4699128], [-58.910532, -27.4692597], [-58.9105545, -27.4683822], [-58.9109698, -27.4674967], [-58.9118305, -27.4664706], [-58.9138375, -27.4647633], [-58.9143945, -27.4640942], [-58.9151458, -27.4635088], [-58.9154516, -27.463064], [-58.9153736, -27.4622763], [-58.9147588, -27.461368], [-58.9143449, -27.4602802], [-58.913961, -27.4599372], [-58.9124554, -27.4593102], [-58.9109199, -27.4579383], [-58.904525, -27.4546486], [-58.9022584, -27.4530724], [-58.9016068, -27.4516825], [-58.9013669, -27.4514681], [-58.9001515, -27.4510106], [-58.8998636, -27.4507534], [-58.8997286, -27.4502738], [-58.8990613, -27.4494981], [-58.898403, -27.4483714], [-58.8969266, -27.4466037], [-58.8949636, -27.4446705], [-58.8942071, -27.4435458], [-58.8938434, -27.4424131], [-58.8938614, -27.4417112], [-58.8944296, -27.4406033], [-58.895432, -27.4397935], [-58.8962155, -27.4398652], [-58.8964667, -27.4396408], [-58.8965739, -27.4392878], [-58.8980606, -27.4387313], [-58.8994034, -27.4380461], [-58.9006412, -27.4376262], [-58.9016234, -27.4376061], [-58.902023, -27.4373349], [-58.9036492, -27.4370824], [-58.9110133, -27.4370197], [-58.9122834, -27.4372569], [-58.9123771, -27.4374304], [-58.912243, -27.4388363], [-58.9120811, -27.4394097], [-58.911677, -27.4398564], [-58.9102974, -27.44006], [-58.9098019, -27.4402455], [-58.9089659, -27.4403065], [-58.9070105, -27.4399956], [-58.9050139, -27.4393786], [-58.9037393, -27.4393169], [-58.9032939, -27.4394576], [-58.9029925, -27.4397268], [-58.9029746, -27.4404288], [-58.9031163, -27.4406452], [-58.9043272, -27.4412782], [-58.9074643, -27.4433628], [-58.9109552, -27.4450456], [-58.9146696, -27.4456713], [-58.9176896, -27.4465744], [-58.9184596, -27.4471725], [-58.919022, -27.4482135], [-58.9196983, -27.4486382], [-58.9208747, -27.4487018], [-58.9218156, -27.4483757], [-58.9224529, -27.4484065], [-58.9225354, -27.4490187], [-58.9214236, -27.4502693], [-58.9213074, -27.4509732], [-58.9215429, -27.4513631], [-58.92266, -27.4518226], [-58.923544, -27.4518046], [-58.9243342, -27.451613], [-58.9247863, -27.4512092], [-58.9253066, -27.4500584], [-58.9253245, -27.4493564], [-58.9247599, -27.4484033], [-58.924394, -27.4473583], [-58.9236854, -27.4462765], [-58.9230158, -27.4455886], [-58.9234199, -27.4451418], [-58.9239178, -27.4448686], [-58.9240227, -27.4446033], [-58.9240339, -27.4441646], [-58.9236133, -27.44334], [-58.9236268, -27.4428135], [-58.9238322, -27.4424585], [-58.92433, -27.4421853], [-58.9250175, -27.4421712], [-58.9255521, -27.4423795], [-58.9264683, -27.4430186], [-58.9269572, -27.4430963], [-58.9272039, -27.4430474], [-58.9278614, -27.4422885], [-58.9288113, -27.4416114], [-58.9300948, -27.4413221], [-58.9326485, -27.4412699], [-58.9331921, -27.4411273], [-58.9334432, -27.4409029], [-58.9334589, -27.4402887], [-58.9324947, -27.4396067], [-58.9313453, -27.4384901], [-58.930813, -27.438194], [-58.9299514, -27.4373346], [-58.929764, -27.4369876], [-58.9297752, -27.4365489], [-58.9299806, -27.4361939], [-58.9314396, -27.4348047], [-58.9328259, -27.4343379], [-58.9353818, -27.434198], [-58.93696, -27.4339027], [-58.9393675, -27.4338097], [-58.940738, -27.4339571], [-58.9411376, -27.4336858], [-58.9412126, -27.4326757], [-58.9418821, -27.4333637], [-58.9425607, -27.4337006], [-58.9429446, -27.4340436], [-58.9427414, -27.4343108], [-58.9413372, -27.4354796], [-58.9400648, -27.4353302], [-58.9386898, -27.4353583], [-58.9369608, -27.4357882], [-58.9365088, -27.4361921], [-58.9364428, -27.4368512], [-58.9365343, -27.4371125], [-58.9371146, -27.4374514], [-58.9397051, -27.4378809], [-58.9426036, -27.4377778], [-58.9434261, -27.4382434], [-58.9441639, -27.4381845], [-58.9448259, -27.4372501], [-58.9457143, -27.4370566], [-58.9463193, -27.4364303], [-58.946614, -27.4364243], [-58.9471876, -27.4370265], [-58.9477702, -27.4372777], [-58.9485079, -27.4372188], [-58.9487613, -27.4369066], [-58.948882, -27.4360272], [-58.9492883, -27.4354927], [-58.9492583, -27.4347478], [-58.9496099, -27.4344337], [-58.951764, -27.4346528], [-58.9521021, -27.4348651], [-58.9523788, -27.4355611], [-58.9527147, -27.4358612], [-58.9530574, -27.4358981], [-58.9534727, -27.4350126], [-58.9533947, -27.4342248], [-58.953013, -27.4337941], [-58.9523322, -27.4335449], [-58.9519963, -27.4332448], [-58.9518614, -27.4327652], [-58.9519843, -27.431798], [-58.9523951, -27.431088], [-58.9524108, -27.4304738], [-58.9521821, -27.4298207], [-58.9523485, -27.4290718], [-58.9527504, -27.4287128], [-58.9548242, -27.428232], [-58.9559638, -27.4278141], [-58.9568702, -27.4269185], [-58.9579663, -27.4262822], [-58.9580825, -27.4255783], [-58.9575614, -27.4248434], [-58.9575246, -27.4243618], [-58.9581454, -27.4231213], [-58.9587459, -27.4226706], [-58.9621925, -27.4222494], [-58.9632361, -27.4217457], [-58.9642708, -27.421593], [-58.9644125, -27.4218094], [-58.9644883, -27.4226849], [-58.964678, -27.4229441], [-58.965217, -27.4229769], [-58.9664549, -27.422557], [-58.9671334, -27.422894], [-58.9672204, -27.4233307], [-58.9675563, -27.4236308], [-58.9684793, -27.4240066], [-58.9690686, -27.4239946], [-58.9693722, -27.4236375], [-58.9691907, -27.4211418], [-58.9692454, -27.4209214], [-58.9697455, -27.4205604], [-58.9698092, -27.419989], [-58.9693885, -27.4191645], [-58.9690526, -27.4188644], [-58.968614, -27.4187418], [-58.9687894, -27.4176419], [-58.9684512, -27.4174296], [-58.9674735, -27.4172741], [-58.9669322, -27.417329], [-58.9662859, -27.4176492], [-58.9655504, -27.4176204], [-58.9670896, -27.4169312], [-58.9688643, -27.4166318], [-58.9703143, -27.4155937], [-58.9717006, -27.4151268], [-58.9725958, -27.4146701], [-58.9733012, -27.413954], [-58.9751486, -27.4127324], [-58.9759778, -27.4129347], [-58.9748795, -27.4136587], [-58.9739228, -27.4145991], [-58.9738569, -27.4152582], [-58.9742408, -27.4156012], [-58.97433, -27.4159502], [-58.9749081, -27.4163769], [-58.9755431, -27.4164954], [-58.9794239, -27.4163723], [-58.9812196, -27.4171688], [-58.9817474, -27.4176404], [-58.9824013, -27.4189426], [-58.9824681, -27.420169], [-58.982651, -27.4206915], [-58.9832269, -27.421206], [-58.9838094, -27.4214572], [-58.9843373, -27.4219287], [-58.9845248, -27.4222757], [-58.9851315, -27.4254206], [-58.9854104, -27.4260288], [-58.9857463, -27.4263289], [-58.9864818, -27.4263577], [-58.9868837, -27.4259987], [-58.9869016, -27.4252967], [-58.9866662, -27.4249069], [-58.9863985, -27.4238599], [-58.9863452, -27.422107], [-58.9866623, -27.4212235], [-58.9872283, -27.4202034], [-58.9884338, -27.4191264], [-58.9898412, -27.4197554], [-58.9900174, -27.4205411], [-58.9902093, -27.4207126], [-58.9916804, -27.4207702], [-58.9919225, -27.4208968], [-58.9920073, -27.4214213], [-58.9913363, -27.4227067], [-58.9913228, -27.4232332], [-58.9916085, -27.4235781], [-58.9920974, -27.4236558], [-58.9923373, -27.4238702], [-58.9928997, -27.4249111], [-58.9931418, -27.4250377], [-58.9938796, -27.4249788], [-58.9944779, -27.4246158], [-58.994882, -27.424169], [-58.9953588, -27.4227999], [-58.9954884, -27.4215695], [-58.9956436, -27.4212594], [-58.9961804, -27.4213799], [-58.9969482, -27.4220659], [-58.9978712, -27.4224417], [-58.9991938, -27.4225462], [-59.0005778, -27.4221672], [-59.0013613, -27.4222389], [-59.0022708, -27.4231412], [-59.0023031, -27.4237983], [-59.0012002, -27.4246978], [-58.9998094, -27.4253401], [-58.9994399, -27.4263562], [-58.9992434, -27.4263602], [-58.9987658, -27.4258438], [-58.9982267, -27.4258109], [-58.9980281, -27.4259027], [-58.9978684, -27.4263883], [-58.9979262, -27.4279657], [-58.9983123, -27.4282209], [-58.9992923, -27.4282886], [-58.9998569, -27.4292418], [-59.000243, -27.429497], [-59.0006861, -27.4294441], [-59.0013961, -27.4285526], [-59.0020836, -27.4285386], [-59.0017988, -27.4300792], [-59.0019338, -27.4305588], [-59.0022697, -27.4308589], [-59.0025141, -27.4308977], [-59.0033546, -27.4306613], [-59.0038569, -27.4302126], [-59.0044162, -27.4294557], [-59.0048158, -27.4291844], [-59.0060034, -27.4288094], [-59.0066407, -27.4288402], [-59.0068348, -27.4289239], [-59.0067119, -27.4298911], [-59.0062074, -27.4304277], [-59.0061002, -27.4307807], [-59.0050565, -27.4312843], [-59.0037003, -27.432496], [-59.0024602, -27.4330037], [-59.0019691, -27.4330137], [-59.0009937, -27.4327705], [-59.0006667, -27.4321194], [-58.9997505, -27.4314804], [-58.9987571, -27.4319392], [-58.997535, -27.4317449], [-58.9967215, -27.4309283], [-58.9962349, -27.4307629], [-58.9957438, -27.4307729], [-58.9952482, -27.4309584], [-58.9941813, -27.430454], [-58.9925116, -27.4304881], [-58.9918173, -27.4307654], [-58.9914155, -27.4311244], [-58.991258, -27.4315222], [-58.9902054, -27.4323769], [-58.9898336, -27.4334808], [-58.9898089, -27.434446], [-58.9900421, -27.4349236], [-58.9906704, -27.4353054], [-58.9916503, -27.4353731], [-58.9924953, -27.4349612], [-58.9924128, -27.4343489], [-58.9926227, -27.4338185], [-58.9936251, -27.4330087], [-58.9944176, -27.4327294], [-58.997212, -27.4347772], [-58.9977488, -27.4348977], [-58.9991239, -27.4348697], [-59.000394, -27.4351068], [-59.0008604, -27.436062], [-59.0007097, -27.4361966], [-58.9992319, -27.4364022], [-58.9973021, -27.4370117], [-58.9960387, -27.4365113], [-58.9954974, -27.4365662], [-58.9947641, -27.4364496], [-58.994426, -27.4362373], [-58.9936927, -27.4361207], [-58.9933366, -27.4366103], [-58.9919826, -27.4377342], [-58.9915238, -27.4384014], [-58.9912591, -27.4391522], [-58.9907568, -27.439601], [-58.9891696, -27.4402473], [-58.9881874, -27.4402674], [-58.9873125, -27.4399344], [-58.987317, -27.4397589], [-58.9867891, -27.4392873], [-58.9866039, -27.4388526], [-58.9872591, -27.4381815], [-58.9873641, -27.4379162], [-58.9873318, -27.4372591], [-58.9870439, -27.4370019], [-58.985824, -27.4367199], [-58.9851477, -27.4362952], [-58.9845607, -27.4362195], [-58.9842593, -27.4364887], [-58.9843306, -27.4375397], [-58.9838785, -27.4379436], [-58.9834609, -27.4389168], [-58.9830066, -27.4394084], [-58.982415, -27.4395082], [-58.9820746, -27.4393836], [-58.9804956, -27.4377934], [-58.979856, -27.4378503], [-58.9792967, -27.4386072], [-58.978646, -27.4391028], [-58.9782396, -27.4396373], [-58.9779293, -27.4402576], [-58.9778633, -27.4409167], [-58.9748127, -27.4431277], [-58.9739745, -27.4432763], [-58.9710759, -27.4433794], [-58.9700547, -27.4430056], [-58.9687824, -27.4428561], [-58.9684967, -27.4425112], [-58.9674755, -27.4421374], [-58.9664431, -27.4422023], [-58.9661919, -27.4424267], [-58.9658726, -27.4433979], [-58.9651738, -27.4438507], [-58.9651101, -27.444422], [-58.9653433, -27.4448996], [-58.9653299, -27.4454261], [-58.9646746, -27.4460973], [-58.9640584, -27.4471623], [-58.9640906, -27.4478194], [-58.9644176, -27.4484704], [-58.9644956, -27.4492582], [-58.9646328, -27.44965], [-58.9649687, -27.4499501], [-58.964387, -27.4515845], [-58.9636927, -27.4518617], [-58.9625276, -27.4513593], [-58.9612095, -27.4510793], [-58.9603457, -27.4503076], [-58.9596649, -27.4500584], [-58.9595457, -27.4489646], [-58.9593125, -27.448487], [-58.9587869, -27.4479277], [-58.9579666, -27.4473744], [-58.9574957, -27.4465947], [-58.9570638, -27.4462088], [-58.9562279, -27.4462697], [-58.9555224, -27.4469858], [-58.9554632, -27.4473816], [-58.9556461, -27.4479041], [-58.9564162, -27.4485023], [-58.9567408, -27.4492411], [-58.9581804, -27.4505272], [-58.9582082, -27.4513598], [-58.9571009, -27.4524349], [-58.9570461, -27.4526552], [-58.9571287, -27.4532674], [-58.9579947, -27.4539514], [-58.9587804, -27.4539353], [-58.9599357, -27.4529032], [-58.9605798, -27.4526708], [-58.9616122, -27.4526058], [-58.9621925, -27.4529448], [-58.96288, -27.4529307], [-58.9634761, -27.4526555], [-58.9646802, -27.4535517], [-58.9650986, -27.4544641], [-58.9659803, -27.4545338], [-58.966919, -27.4542953], [-58.9674191, -27.4539343], [-58.9679259, -27.4533101], [-58.9685152, -27.453298], [-58.9694292, -27.4540248], [-58.9697104, -27.4545453], [-58.9700943, -27.4548883], [-58.9707818, -27.4548742], [-58.9719829, -27.4539727], [-58.9721627, -27.4526973], [-58.9723157, -27.452475], [-58.9728113, -27.4522894], [-58.9733503, -27.4523223], [-58.9738849, -27.4525306], [-58.9747509, -27.4532145], [-58.9749864, -27.4536044], [-58.9750164, -27.4543492], [-58.9747563, -27.4549246], [-58.9736781, -27.4548589], [-58.9725955, -27.4549687], [-58.9718465, -27.4554664], [-58.9716891, -27.4558643], [-58.9717258, -27.4563459], [-58.9727658, -27.4579032], [-58.9722478, -27.4589662], [-58.9722733, -27.4598866], [-58.9725088, -27.4602764], [-58.9739026, -27.4614319], [-58.9738959, -27.4616952], [-58.9735443, -27.4620093], [-58.9731792, -27.4628499], [-58.9725786, -27.4633007], [-58.9708542, -27.4635551], [-58.9685194, -27.4627258], [-58.9680306, -27.4626481], [-58.9676355, -27.4627439], [-58.9672771, -27.4633212], [-58.967056, -27.4642905], [-58.9670725, -27.4655618], [-58.9668581, -27.4662678], [-58.9662989, -27.4670247], [-58.9652072, -27.4674855], [-58.9641748, -27.4675504], [-58.9631536, -27.4671766], [-58.9615198, -27.4658067], [-58.9610332, -27.4656413], [-58.9597564, -27.4656673], [-58.9588635, -27.4660364], [-58.9580095, -27.4667993], [-58.9570439, -27.4680907], [-58.9558908, -27.4690351], [-58.9559186, -27.4698677], [-58.9574542, -27.4712395], [-58.9584341, -27.4713072], [-58.9588795, -27.4711666], [-58.9592311, -27.4708524], [-58.9593495, -27.4700607], [-58.9587436, -27.4688014], [-58.9587638, -27.4680117], [-58.9592204, -27.4674323], [-58.9598622, -27.4672877], [-58.960495, -27.467494], [-58.9613108, -27.4682228], [-58.9616879, -27.468829], [-58.9629401, -27.4697681], [-58.9632213, -27.4702886], [-58.962518, -27.4709169], [-58.9614542, -27.4722103], [-58.9608289, -27.4736262], [-58.9602239, -27.4742525], [-58.9574671, -27.4745719], [-58.9569325, -27.4743636], [-58.9563567, -27.4738491], [-58.9556714, -27.4737754], [-58.9553722, -27.4739569], [-58.9552996, -27.4748793], [-58.9551421, -27.4752771], [-58.953528, -27.4769764], [-58.9518501, -27.4792471], [-58.9516402, -27.4797776], [-58.9516658, -27.4806979], [-58.9515061, -27.4811835], [-58.9513554, -27.4813181], [-58.9508621, -27.4814159], [-58.9496879, -27.4812645], [-58.9487515, -27.4814152], [-58.9485461, -27.4817702], [-58.9486174, -27.4828211], [-58.9479419, -27.484282], [-58.9480177, -27.4851575], [-58.9489707, -27.4862781], [-58.9491994, -27.4869312], [-58.9490195, -27.4882065], [-58.9481611, -27.4891449], [-58.9480951, -27.489804], [-58.9482803, -27.4902388], [-58.9488517, -27.4909287], [-58.9499352, -27.4927044], [-58.9505567, -27.4933495], [-58.9515277, -27.4937682], [-58.9524394, -27.4945827], [-58.9539517, -27.4949465], [-58.954676, -27.4954141], [-58.9553823, -27.4965836], [-58.9552504, -27.4979018], [-58.9558953, -27.499555], [-58.9561352, -27.4997693], [-58.9570102, -27.5001023], [-58.9574901, -27.500531], [-58.9577376, -27.5023676], [-58.9584094, -27.5029678], [-58.9593759, -27.503562], [-58.9598625, -27.5037275], [-58.9606985, -27.5036665], [-58.9611505, -27.5032627], [-58.9619722, -27.5018427], [-58.9629723, -27.5011206], [-58.9630383, -27.5004615], [-58.9628966, -27.5002452], [-58.9621723, -27.4997776], [-58.9617539, -27.4988653], [-58.9608946, -27.4979181], [-58.9605789, -27.4968283], [-58.9597152, -27.4960566], [-58.9594797, -27.4956668], [-58.9590725, -27.4943157], [-58.958124, -27.4930196], [-58.9567347, -27.4916886], [-58.9565037, -27.4911232], [-58.9565652, -27.4906396], [-58.9568643, -27.4904581], [-58.9573532, -27.4905358], [-58.9586945, -27.491824], [-58.9594233, -27.492116], [-58.9601476, -27.4925836], [-58.9609356, -27.4924798], [-58.9614881, -27.4919862], [-58.9618832, -27.4918904], [-58.9634023, -27.4919909], [-58.9653186, -27.491908], [-58.9660586, -27.4917613], [-58.9665107, -27.4913574], [-58.966962, -27.489068], [-58.9669956, -27.4877518], [-58.9671531, -27.4873539], [-58.9679568, -27.4866359], [-58.9685963, -27.486579], [-58.9688362, -27.4867933], [-58.9688797, -27.4870117], [-58.9685581, -27.4880706], [-58.9686303, -27.4910072], [-58.9684279, -27.49316], [-58.9686199, -27.4933315], [-58.9690128, -27.4933234], [-58.9696178, -27.4926972], [-58.9702385, -27.4914567], [-58.9707408, -27.4910079], [-58.972424, -27.4904473], [-58.9728326, -27.4898251], [-58.9728483, -27.4892109], [-58.972238, -27.4881271], [-58.9722582, -27.4873373], [-58.9729336, -27.4858765], [-58.9729516, -27.4851745], [-58.9726269, -27.4844357], [-58.9721493, -27.4839192], [-58.9721148, -27.4833499], [-58.9724139, -27.4831684], [-58.9732476, -27.4831952], [-58.9737342, -27.4833606], [-58.9743581, -27.483918], [-58.9744316, -27.4848812], [-58.9738844, -27.4870849], [-58.9738687, -27.4876991], [-58.9741019, -27.4881767], [-58.9756899, -27.4894159], [-58.9758751, -27.4898507], [-58.9758002, -27.4908608], [-58.975588, -27.491479], [-58.9747821, -27.4922848], [-58.9745197, -27.4929479], [-58.9745565, -27.4934295], [-58.9749269, -27.4942989], [-58.9749547, -27.4951315], [-58.9744936, -27.4958864], [-58.973336, -27.4970063], [-58.9727063, -27.4985978], [-58.9722542, -27.4990017], [-58.9713133, -27.4993278], [-58.970724, -27.4993399], [-58.9696983, -27.4991416], [-58.9689606, -27.4992005], [-58.9679192, -27.4996164], [-58.9675675, -27.4999305], [-58.9675541, -27.500457], [-58.967938, -27.5008], [-58.9681712, -27.5012776], [-58.9681518, -27.5039529], [-58.9686707, -27.5047754], [-58.9685433, -27.5059181], [-58.9675431, -27.5066402], [-58.9672395, -27.5069972], [-58.9652406, -27.5064679], [-58.9644549, -27.506484], [-58.9640095, -27.5066246], [-58.9632081, -27.5072549], [-58.9625438, -27.508277], [-58.9606898, -27.509762], [-58.960674, -27.5103762], [-58.960962, -27.5106334], [-58.9624173, -27.5113053], [-58.961714, -27.5119336], [-58.9613579, -27.5124232], [-58.960456, -27.5131432], [-58.9601959, -27.5137186], [-58.9594949, -27.5142591], [-58.9592894, -27.5146141], [-58.9591643, -27.5156691], [-58.9594275, -27.5168915], [-58.9586261, -27.5175218], [-58.9583179, -27.5180543], [-58.9569137, -27.5192231], [-58.9555297, -27.5196021], [-58.9548924, -27.5195713], [-58.9533366, -27.5189892], [-58.9516301, -27.5185417], [-58.9498232, -27.5181839], [-58.948889, -27.5182468], [-58.9478266, -27.5175669], [-58.947139, -27.517581], [-58.9463945, -27.5179031], [-58.9450742, -27.5177108], [-58.9436489, -27.5177838], [-58.9427013, -27.5183732], [-58.9417267, -27.5200156], [-58.941375, -27.5203297], [-58.940914, -27.5210846], [-58.9395097, -27.5222534], [-58.9393546, -27.5225635], [-58.9369044, -27.5243237], [-58.9352993, -27.525672], [-58.9341874, -27.5269225], [-58.9328612, -27.528879], [-58.9291096, -27.5316305], [-58.9262944, -27.5342313], [-58.9256503, -27.5344637], [-58.9247664, -27.5344818], [-58.9230621, -27.5339465], [-58.9224248, -27.5339157], [-58.920687, -27.5346966], [-58.9196568, -27.5346738], [-58.9190742, -27.5344226]], [[-58.9573944, -27.5061896], [-58.9569903, -27.5066364], [-58.9570136, -27.5076445], [-58.9574912, -27.5081609], [-58.9581787, -27.5081469], [-58.9583797, -27.5079674], [-58.9585918, -27.5073492], [-58.9585183, -27.5063859], [-58.9581322, -27.5061307], [-58.9573944, -27.5061896]], [[-58.9530737, -27.4621204], [-58.9531584, -27.4626448], [-58.953741, -27.462896], [-58.9561072, -27.4624969], [-58.9563104, -27.4622297], [-58.9563171, -27.4619664], [-58.9561274, -27.4617072], [-58.9553964, -27.4615029], [-58.9535257, -27.4617165], [-58.9530737, -27.4621204]], [[-58.9277135, -27.4845197], [-58.9278529, -27.4848238], [-58.9282893, -27.4850341], [-58.929372, -27.4849243], [-58.9303766, -27.4840268], [-58.9303488, -27.4831942], [-58.9299627, -27.482939], [-58.9291267, -27.4829999], [-58.9278296, -27.4838157], [-58.9277135, -27.4845197]], [[-58.9841526, -27.4329829], [-58.9835544, -27.4333459], [-58.983301, -27.433658], [-58.9833332, -27.4343151], [-58.9838611, -27.4347867], [-58.9845988, -27.4347278], [-58.9852541, -27.4340566], [-58.9853223, -27.4333098], [-58.9850868, -27.4329199], [-58.9841526, -27.4329829]], [[-58.9362887, -27.4754867], [-58.9359874, -27.475756], [-58.9358165, -27.4766803], [-58.9359537, -27.4770722], [-58.9368107, -27.4781071], [-58.9370282, -27.4791989], [-58.9378305, -27.4804542], [-58.939576, -27.4812956], [-58.9401608, -27.481459], [-58.941095, -27.4813961], [-58.9412981, -27.4811289], [-58.9413094, -27.4806901], [-58.9410717, -27.480388], [-58.9402972, -27.4799653], [-58.9391935, -27.4789793], [-58.9389145, -27.4783711], [-58.9386971, -27.4772793], [-58.9382239, -27.4765873], [-58.9370745, -27.4754707], [-58.9362887, -27.4754867]], [[-58.942761, -27.4680754], [-58.9425991, -27.4686487], [-58.94307, -27.4694284], [-58.943283, -27.4706957], [-58.9434705, -27.4710427], [-58.9443934, -27.4714185], [-58.9453299, -27.4712679], [-58.9455855, -27.470868], [-58.9455487, -27.4703864], [-58.945407, -27.47017], [-58.9448245, -27.4699188], [-58.9443926, -27.469533], [-58.9439809, -27.4683574], [-58.9434988, -27.4680165], [-58.942761, -27.4680754]], [[-58.9830158, -27.4294542], [-58.9826665, -27.4296806], [-58.9825983, -27.4304274], [-58.9828795, -27.4309479], [-58.9831472, -27.4319948], [-58.9833871, -27.4322092], [-58.9838782, -27.4321991], [-58.9841316, -27.431887], [-58.9839231, -27.4304442], [-58.9835047, -27.4295319], [-58.9830158, -27.4294542]], [[-58.9703738, -27.4362899], [-58.9694216, -27.4370548], [-58.9692664, -27.4373649], [-58.9693032, -27.4378465], [-58.9703634, -27.4386142], [-58.9712617, -27.4399552], [-58.9717415, -27.4403839], [-58.9724268, -27.4404576], [-58.9729224, -27.4402721], [-58.9732238, -27.4400029], [-58.9733812, -27.439605], [-58.9733445, -27.4391234], [-58.9730678, -27.4384274], [-58.9731584, -27.4368031], [-58.9730692, -27.4364541], [-58.9727333, -27.436154], [-58.9722946, -27.4360314], [-58.9712645, -27.4360086], [-58.9703738, -27.4362899]], [[-58.9600342, -27.4432979], [-58.9592942, -27.4434445], [-58.9583923, -27.4441646], [-58.9581869, -27.4445196], [-58.9581712, -27.4451338], [-58.9584546, -27.4455665], [-58.9591879, -27.4456831], [-58.959535, -27.4455445], [-58.9599391, -27.4450977], [-58.9603544, -27.4442122], [-58.9603701, -27.443598], [-58.9600342, -27.4432979]], [[-58.926568, -27.4717387], [-58.926607, -27.4721325], [-58.9272788, -27.4727327], [-58.9280533, -27.4731554], [-58.9285946, -27.4731005], [-58.929645, -27.4723336], [-58.9294051, -27.4721193], [-58.9277008, -27.471584], [-58.9268191, -27.4715143], [-58.926568, -27.4717387]], [[-58.9781535, -27.4257385], [-58.9775139, -27.4257954], [-58.9772628, -27.4260198], [-58.9768977, -27.4268604], [-58.9765461, -27.4271745], [-58.97595, -27.4274498], [-58.9757949, -27.4277599], [-58.9758729, -27.4285476], [-58.9767366, -27.4293193], [-58.9768581, -27.4303254], [-58.9770021, -27.430454], [-58.9775936, -27.4303542], [-58.9777713, -27.4291666], [-58.9785817, -27.4281853], [-58.9787916, -27.4276549], [-58.9788186, -27.4266019], [-58.9785876, -27.4260366], [-58.9781535, -27.4257385]], [[-58.9436167, -27.4557359], [-58.9436534, -27.4562175], [-58.9439916, -27.4564298], [-58.9455631, -27.4563978], [-58.9470753, -27.4567615], [-58.9476646, -27.4567495], [-58.9486033, -27.4565111], [-58.9488087, -27.4561561], [-58.9488177, -27.4558051], [-58.9482854, -27.455509], [-58.9459281, -27.4555571], [-58.9448545, -27.455316], [-58.9440687, -27.455332], [-58.9436167, -27.4557359]], [[-58.9798875, -27.4212741], [-58.9789533, -27.4213371], [-58.9777957, -27.422457], [-58.9771494, -27.4227771], [-58.9767476, -27.4231361], [-58.9765399, -27.4235789], [-58.9760421, -27.4238522], [-58.9758322, -27.4243826], [-58.9758187, -27.4249091], [-58.9762438, -27.4255582], [-58.9771758, -27.425583], [-58.9776804, -27.4250465], [-58.9778445, -27.4243854], [-58.9782899, -27.4242448], [-58.9799498, -27.4226761], [-58.9802076, -27.4221885], [-58.9802211, -27.421662], [-58.9798875, -27.4212741]], [[-58.9721599, -27.4259486], [-58.9719635, -27.4259526], [-58.9716119, -27.4262667], [-58.9710939, -27.4273297], [-58.9710826, -27.4277684], [-58.9713683, -27.4281134], [-58.9721038, -27.4281422], [-58.9726474, -27.4279996], [-58.9731999, -27.4275059], [-58.9732089, -27.4271549], [-58.9724501, -27.426118], [-58.9721599, -27.4259486]], [[-58.9419641, -27.4531825], [-58.9413748, -27.4531945], [-58.9409774, -27.453378], [-58.9397651, -27.4547183], [-58.9396992, -27.4553774], [-58.9398386, -27.4556815], [-58.9406109, -27.4561919], [-58.9416411, -27.4562147], [-58.9420384, -27.4560312], [-58.9423923, -27.4556293], [-58.9426067, -27.4549234], [-58.9425834, -27.4539153], [-58.9424462, -27.4535234], [-58.9419641, -27.4531825]], [[-58.9455889, -27.4477148], [-58.94534, -27.4478514], [-58.9451803, -27.4483371], [-58.9452547, -27.4511858], [-58.9450905, -27.4518469], [-58.9457735, -27.4520084], [-58.9460457, -27.4528799], [-58.9461897, -27.4530085], [-58.9469754, -27.4529924], [-58.9474822, -27.4523682], [-58.948151, -27.4511705], [-58.9483106, -27.4506849], [-58.9482761, -27.4501156], [-58.9481367, -27.4498115], [-58.9468868, -27.4487846], [-58.9463679, -27.447962], [-58.946128, -27.4477477], [-58.9455889, -27.4477148]], [[-58.9550001, -27.438621], [-58.954749, -27.4388454], [-58.9545803, -27.439682], [-58.9547041, -27.4406003], [-58.9550767, -27.441382], [-58.9565186, -27.4425804], [-58.9574003, -27.4426501], [-58.9579461, -27.4424197], [-58.958348, -27.4420607], [-58.9586059, -27.441573], [-58.9585301, -27.4406976], [-58.9583381, -27.4405261], [-58.9573649, -27.4401952], [-58.9568851, -27.4397664], [-58.9565581, -27.4391154], [-58.9561263, -27.4387295], [-58.9557379, -27.4385621], [-58.9550001, -27.438621]], [[-58.9730038, -27.4179067], [-58.9715283, -27.4180245], [-58.9710156, -27.4207976], [-58.9708057, -27.421328], [-58.9707877, -27.42203], [-58.9714213, -27.4241219], [-58.9715908, -27.4251709], [-58.971881, -27.4253403], [-58.9722304, -27.425114], [-58.9722873, -27.4248058], [-58.9720788, -27.423363], [-58.9722332, -27.4211673], [-58.9723884, -27.4208572], [-58.9731921, -27.4201392], [-58.9736119, -27.4190782], [-58.9735841, -27.4182456], [-58.9733944, -27.4179864], [-58.9730038, -27.4179067]], [[-58.9487891, -27.4377392], [-58.9484922, -27.437833], [-58.9483393, -27.4380554], [-58.9481526, -27.439594], [-58.9476301, -27.4408324], [-58.9475027, -27.4419752], [-58.9476422, -27.4422793], [-58.9486499, -27.4431796], [-58.9488719, -27.4440959], [-58.9494343, -27.4451368], [-58.9495123, -27.4459245], [-58.9498024, -27.446094], [-58.9501953, -27.446086], [-58.9505537, -27.4455086], [-58.9506421, -27.443972], [-58.9503721, -27.4430128], [-58.950456, -27.4416518], [-58.9503345, -27.4406457], [-58.9497264, -27.4394741], [-58.95, -27.4383723], [-58.9499565, -27.4381539], [-58.9492802, -27.4377292], [-58.9487891, -27.4377392]]]}}]}