{"type": "FeatureCollection", "name": "cotas_mayor_52m", "features": [{"type": "Feature", "properties": {"id": 1, "rango": "Mayor a 52 m", "cota_mop": "Mayor a 52 m", "altura_hidrometro_barranqueras": "Mayor a 10,2 m", "color": "#F5E050", "area_ha": 3.14}, "geometry": {"type": "Polygon", "coordinates": [[[-58.9955257, -27.479583], [-58.9955347, -27.479232], [-58.9960348, -27.478871], [-58.9972134, -27.4788469], [-58.9980036, -27.4786554], [-58.9981933, -27.4789146], [-58.9981364, -27.4792227], [-58.9975838, -27.4797164], [-58.9966362, -27.4803058], [-58.9961451, -27.4803158], [-58.9956652, -27.4798871], [-58.9955257, -27.479583]]]}}, {"type": "Feature", "properties": {"id": 2, "rango": "Mayor a 52 m", "cota_mop": "Mayor a 52 m", "altura_hidrometro_barranqueras": "Mayor a 10,2 m", "color": "#F5E050", "area_ha": 1.63}, "geometry": {"type": "Polygon", "coordinates": [[[-59.0238659, -27.4347152], [-59.0244072, -27.4346603], [-59.0246996, -27.4347421], [-59.0250355, -27.4350421], [-59.0252185, -27.4355646], [-59.0249651, -27.4358767], [-59.0243255, -27.4359337], [-59.0236515, -27.4354212], [-59.0236125, -27.4350274], [-59.0238659, -27.4347152]]]}}, {"type": "Feature", "properties": {"id": 3, "rango": "Mayor a 52 m", "cota_mop": "Mayor a 52 m", "altura_hidrometro_barranqueras": "Mayor a 10,2 m", "color": "#F5E050", "area_ha": 1.49}, "geometry": {"type": "Polygon", "coordinates": [[[-59.0309072, -27.4280816], [-59.0314006, -27.4279838], [-59.0318369, -27.4281941], [-59.0321136, -27.4288901], [-59.03181, -27.4292471], [-59.0316113, -27.4293388], [-59.0312207, -27.4292591], [-59.0307408, -27.4288304], [-59.0307041, -27.4283488], [-59.0309072, -27.4280816]]]}}, {"type": "Feature", "properties": {"id": 4, "rango": "Mayor a 52 m", "cota_mop": "Mayor a 52 m", "altura_hidrometro_barranqueras": "Mayor a 10,2 m", "color": "#F5E050", "area_ha": 2.87}, "geometry": {"type": "Polygon", "coordinates": [[[-59.0275566, -27.4285885], [-59.0275979, -27.4288946], [-59.0274404, -27.4292925], [-59.0265955, -27.4297044], [-59.0260362, -27.4304613], [-59.0253922, -27.4306937], [-59.0248598, -27.4303976], [-59.0249168, -27.4300895], [-59.0255653, -27.4296816], [-59.0266749, -27.4285188], [-59.0271705, -27.4283333], [-59.0275566, -27.4285885]]]}}, {"type": "Feature", "properties": {"id": 5, "rango": "Mayor a 52 m", "cota_mop": "Mayor a 52 m", "altura_hidrometro_barranqueras": "Mayor a 10,2 m", "color": "#F5E050", "area_ha": 5.6}, "geometry": {"type": "Polygon", "coordinates": [[[-59.0205584, -27.4296961], [-59.0207638, -27.4293411], [-59.0216133, -27.4287537], [-59.0220084, -27.4286579], [-59.0229883, -27.4287256], [-59.0234727, -27.4289788], [-59.0236054, -27.4295462], [-59.0240898, -27.4297994], [-59.0243732, -27.4302321], [-59.0242705, -27.4304096], [-59.0238731, -27.4305931], [-59.0231879, -27.4305194], [-59.0227537, -27.4302213], [-59.0219613, -27.4305006], [-59.0209813, -27.4304329], [-59.0205974, -27.43009], [-59.0205584, -27.4296961]]]}}, {"type": "Feature", "properties": {"id": 6, "rango": "Mayor a 52 m", "cota_mop": "Mayor a 52 m", "altura_hidrometro_barranqueras": "Mayor a 10,2 m", "color": "#F5E050", "area_ha": 8.08}, "geometry": {"type": "Polygon", "coordinates": [[[-59.0166376, -27.4217954], [-59.0170304, -27.4217873], [-59.0173686, -27.4219997], [-59.0174968, -27.4227425], [-59.0178372, -27.4228671], [-59.0182669, -27.4233407], [-59.0180547, -27.423959], [-59.0186283, -27.4245611], [-59.0187041, -27.4254366], [-59.0184942, -27.4259671], [-59.0180946, -27.4262384], [-59.0177519, -27.4262015], [-59.017416, -27.4259014], [-59.0172788, -27.4255096], [-59.01729, -27.4250708], [-59.0175524, -27.4244077], [-59.0174129, -27.4241036], [-59.0171685, -27.4240648], [-59.0169196, -27.4242014], [-59.0167644, -27.4245115], [-59.0160724, -27.424701], [-59.0157342, -27.4244887], [-59.0154988, -27.4240988], [-59.0155603, -27.4236152], [-59.0160191, -27.4229481], [-59.0159868, -27.422291], [-59.0162904, -27.421934], [-59.0166376, -27.4217954]]]}}, {"type": "Feature", "properties": {"id": 7, "rango": "Mayor a 52 m", "cota_mop": "Mayor a 52 m", "altura_hidrometro_barranqueras": "Mayor a 10,2 m", "color": "#F5E050", "area_ha": 1.1}, "geometry": {"type": "Polygon", "coordinates": [[[-59.0159256, -27.4131713], [-59.0163687, -27.4131184], [-59.0171365, -27.4138044], [-59.0171823, -27.413935], [-59.0169768, -27.41429], [-59.016632, -27.4143409], [-59.0157682, -27.4135692], [-59.0157225, -27.4134386], [-59.0159256, -27.4131713]]]}}, {"type": "Feature", "properties": {"id": 8, "rango": "Mayor a 52 m", "cota_mop": "Mayor a 52 m", "altura_hidrometro_barranqueras": "Mayor a 10,2 m", "color": "#F5E050", "area_ha": 1.3}, "geometry": {"type": "Polygon", "coordinates": [[[-58.99932, -27.3984258], [-58.9998134, -27.3983281], [-59.0007731, -27.3991855], [-59.0008188, -27.3993161], [-59.0006134, -27.3996711], [-59.0002685, -27.399722], [-58.9992128, -27.3987788], [-58.9991671, -27.3986482], [-58.99932, -27.3984258]]]}}, {"type": "Feature", "properties": {"id": 9, "rango": "Mayor a 52 m", "cota_mop": "Mayor a 52 m", "altura_hidrometro_barranqueras": "Mayor a 10,2 m", "color": "#F5E050", "area_ha": 1.41}, "geometry": {"type": "Polygon", "coordinates": [[[-58.9078816, -27.4673406], [-58.9082264, -27.4672897], [-58.9092844, -27.4681451], [-58.9093759, -27.4684063], [-58.9091727, -27.4686736], [-58.9088758, -27.4687673], [-58.9083915, -27.4685141], [-58.9076784, -27.4676078], [-58.9078816, -27.4673406]]]}}]}