{"type": "FeatureCollection", "name": "cotas_51_a_52m", "features": [{"type": "Feature", "properties": {"id": 1, "rango": "51 a 52 m", "cota_mop": "51 a 52 m", "altura_hidrometro_barranqueras": "9,2 a 10,2 m", "color": "#F07060", "area_ha": 42.05}, "geometry": {"type": "Polygon", "coordinates": [[[-59.0095813, -27.4462765], [-59.0099329, -27.4459624], [-59.0109743, -27.4455465], [-59.0125458, -27.4455144], [-59.0132858, -27.4453677], [-59.0144389, -27.4444233], [-59.0157749, -27.4440014], [-59.0164235, -27.4435935], [-59.017698, -27.4436551], [-59.0179335, -27.444045], [-59.017998, -27.4453592], [-59.0175459, -27.4457631], [-59.0173338, -27.4463813], [-59.017471, -27.4467732], [-59.0182778, -27.447853], [-59.0184608, -27.4483754], [-59.0184863, -27.4492958], [-59.0183791, -27.4496488], [-59.0179225, -27.4502281], [-59.0171278, -27.4505952], [-59.0160976, -27.4505724], [-59.0143957, -27.4499494], [-59.0131233, -27.4497999], [-59.0120174, -27.4489017], [-59.011503, -27.4479036], [-59.0111191, -27.4475606], [-59.0102419, -27.4473154], [-59.0096616, -27.4469765], [-59.0095221, -27.4466724], [-59.0095813, -27.4462765]]]}}, {"type": "Feature", "properties": {"id": 2, "rango": "51 a 52 m", "cota_mop": "51 a 52 m", "altura_hidrometro_barranqueras": "9,2 a 10,2 m", "color": "#F07060", "area_ha": 111.24}, "geometry": {"type": "Polygon", "coordinates": [[[-58.9963443, -27.4456698], [-58.9965497, -27.4453148], [-58.997927, -27.445199], [-58.9980006, -27.4461622], [-58.9977404, -27.4467376], [-58.9978844, -27.4468662], [-58.9983252, -27.446901], [-58.998928, -27.4463625], [-58.9995645, -27.4445078], [-59.0002722, -27.443704], [-59.0005045, -27.4422961], [-59.0007145, -27.4417656], [-59.0012168, -27.4413168], [-59.0022079, -27.4409458], [-59.0025116, -27.4405888], [-59.0024748, -27.4401072], [-59.0018555, -27.4393743], [-59.0015878, -27.4383274], [-59.0012998, -27.4380702], [-59.0005643, -27.4380413], [-58.9996714, -27.4384104], [-58.9988354, -27.4384713], [-58.9981044, -27.438267], [-58.9976223, -27.437926], [-58.9973868, -27.4375362], [-58.9973501, -27.4370546], [-58.9988848, -27.4365409], [-59.000559, -27.4363313], [-59.0009084, -27.4361049], [-59.0027265, -27.4360239], [-59.0032634, -27.4361445], [-59.0032799, -27.4374158], [-59.0034171, -27.4378077], [-59.0043814, -27.4384896], [-59.0050007, -27.4392224], [-59.0052774, -27.4399184], [-59.0055196, -27.440045], [-59.0060107, -27.4400349], [-59.0067551, -27.4397128], [-59.0076391, -27.4396947], [-59.0084683, -27.4398971], [-59.0091079, -27.4398402], [-59.0104462, -27.4393305], [-59.0110467, -27.4388797], [-59.0118347, -27.4387759], [-59.0126339, -27.4382334], [-59.0128806, -27.4381845], [-59.0149328, -27.4404667], [-59.0152117, -27.4410749], [-59.0150565, -27.441385], [-59.0140084, -27.4420642], [-59.0125741, -27.4424881], [-59.010804, -27.442612], [-59.0102582, -27.4428424], [-59.0096576, -27.4432931], [-59.0082301, -27.4434538], [-59.0073372, -27.4438229], [-59.0063828, -27.4446755], [-59.0053871, -27.445222], [-59.0051337, -27.4455342], [-59.0049081, -27.4466789], [-59.0049202, -27.4481257], [-59.0046667, -27.4484379], [-59.0041712, -27.4486234], [-59.0030863, -27.4488209], [-59.0027436, -27.4487841], [-59.0022458, -27.4490573], [-59.0004779, -27.4490934], [-58.9985727, -27.4487377], [-58.9979969, -27.4482232], [-58.9978821, -27.4469539], [-58.9976422, -27.4467396], [-58.9970574, -27.4465761], [-58.9963443, -27.4456698]]]}}, {"type": "Feature", "properties": {"id": 3, "rango": "51 a 52 m", "cota_mop": "51 a 52 m", "altura_hidrometro_barranqueras": "9,2 a 10,2 m", "color": "#F07060", "area_ha": 5.06}, "geometry": {"type": "Polygon", "coordinates": [[[-58.9821134, -27.4493808], [-58.9827664, -27.4487974], [-58.983849, -27.4486876], [-58.9845231, -27.4492], [-58.9848478, -27.4499388], [-58.9848823, -27.4505082], [-58.9841333, -27.4510058], [-58.9836902, -27.4510587], [-58.9829636, -27.4506789], [-58.9823878, -27.4501645], [-58.9821134, -27.4493808]]]}}, {"type": "Feature", "properties": {"id": 4, "rango": "51 a 52 m", "cota_mop": "51 a 52 m", "altura_hidrometro_barranqueras": "9,2 a 10,2 m", "color": "#F07060", "area_ha": 3.66}, "geometry": {"type": "Polygon", "coordinates": [[[-58.9985337, -27.4329961], [-58.9985427, -27.4326452], [-58.9988051, -27.431982], [-58.9997003, -27.4315252], [-59.0006165, -27.4321643], [-59.0008977, -27.4326848], [-59.0006923, -27.4330398], [-58.9999433, -27.4335374], [-58.9990114, -27.4335126], [-58.9986732, -27.4333002], [-58.9985337, -27.4329961]]]}}, {"type": "Feature", "properties": {"id": 5, "rango": "51 a 52 m", "cota_mop": "51 a 52 m", "altura_hidrometro_barranqueras": "9,2 a 10,2 m", "color": "#F07060", "area_ha": 27.67}, "geometry": {"type": "Polygon", "coordinates": [[[-58.9484316, -27.4248545], [-58.9489841, -27.4243608], [-58.9498313, -27.4238612], [-58.9518137, -27.4231191], [-58.9526609, -27.4226194], [-58.9528071, -27.4226603], [-58.9539969, -27.4221975], [-58.9559088, -27.42229], [-58.9558729, -27.423694], [-58.9560513, -27.4243919], [-58.9558325, -27.4252734], [-58.9553736, -27.4259405], [-58.9538344, -27.4266297], [-58.9531837, -27.4271254], [-58.9524437, -27.427272], [-58.9509269, -27.4270837], [-58.9493411, -27.4257568], [-58.9490119, -27.4251934], [-58.9484316, -27.4248545]]]}}, {"type": "Feature", "properties": {"id": 6, "rango": "51 a 52 m", "cota_mop": "51 a 52 m", "altura_hidrometro_barranqueras": "9,2 a 10,2 m", "color": "#F07060", "area_ha": 25.84}, "geometry": {"type": "Polygon", "coordinates": [[[-58.9401274, -27.4271289], [-58.9413127, -27.4268416], [-58.942037, -27.4273091], [-58.9421787, -27.4275255], [-58.9420146, -27.4281866], [-58.9420446, -27.4289314], [-58.9425769, -27.4292275], [-58.9437511, -27.429379], [-58.9442789, -27.4298505], [-58.9447933, -27.4308486], [-58.9454194, -27.4313182], [-58.9454996, -27.4320181], [-58.9448879, -27.4329076], [-58.943785, -27.4338072], [-58.9429948, -27.4339987], [-58.9413565, -27.4328043], [-58.9411691, -27.4324574], [-58.9412965, -27.4313147], [-58.9406726, -27.4307573], [-58.9402977, -27.4300634], [-58.9398179, -27.4296347], [-58.9390891, -27.4293426], [-58.9389998, -27.4289936], [-58.9385702, -27.42852], [-58.939077, -27.4278958], [-58.9401274, -27.4271289]]]}}]}