{"type": "FeatureCollection", "name": "cotas_50_a_51m", "features": [{"type": "Feature", "properties": {"id": 1, "rango": "50 a 51 m", "cota_mop": "50 a 51 m", "altura_hidrometro_barranqueras": "8,2 a 9,2 m", "color": "#7070E6", "area_ha": 3.26}, "geometry": {"type": "Polygon", "coordinates": [[[-58.9601434, -27.5138512], [-58.9606165, -27.5145432], [-58.9606398, -27.5155512], [-58.9603797, -27.5161266], [-58.9594755, -27.5169344], [-58.9592145, -27.5156242], [-58.9592325, -27.5149222], [-58.9595429, -27.514302], [-58.9601434, -27.5138512]]]}}, {"type": "Feature", "properties": {"id": 2, "rango": "50 a 51 m", "cota_mop": "50 a 51 m", "altura_hidrometro_barranqueras": "8,2 a 9,2 m", "color": "#7070E6", "area_ha": 8.93}, "geometry": {"type": "Polygon", "coordinates": [[[-58.9852939, -27.4823791], [-58.9862259, -27.482404], [-58.9866098, -27.4827469], [-58.9868887, -27.4833551], [-58.9868483, -27.4849346], [-58.9866384, -27.4854651], [-58.9863393, -27.4856466], [-58.9858962, -27.4856995], [-58.9845301, -27.4853766], [-58.9840502, -27.4849479], [-58.9838193, -27.4843825], [-58.9838897, -27.4835479], [-58.9841454, -27.483148], [-58.9852939, -27.4823791]]]}}, {"type": "Feature", "properties": {"id": 3, "rango": "50 a 51 m", "cota_mop": "50 a 51 m", "altura_hidrometro_barranqueras": "8,2 a 9,2 m", "color": "#7070E6", "area_ha": 5.68}, "geometry": {"type": "Polygon", "coordinates": [[[-58.9825969, -27.4784438], [-58.9826081, -27.4780051], [-58.982866, -27.4775174], [-58.9834185, -27.4770238], [-58.9838159, -27.4768403], [-58.9848003, -27.4767325], [-58.9855291, -27.4770246], [-58.9857668, -27.4773267], [-58.9856529, -27.4779429], [-58.983906, -27.4790748], [-58.9835611, -27.4791257], [-58.9829763, -27.4789623], [-58.9825969, -27.4784438]]]}}, {"type": "Feature", "properties": {"id": 4, "rango": "50 a 51 m", "cota_mop": "50 a 51 m", "altura_hidrometro_barranqueras": "8,2 a 9,2 m", "color": "#7070E6", "area_ha": 3.72}, "geometry": {"type": "Polygon", "coordinates": [[[-59.012025, -27.4351763], [-59.0125003, -27.4357805], [-59.0127793, -27.4363887], [-59.0128828, -27.4380967], [-59.0117867, -27.438733], [-59.0111449, -27.4388777], [-59.0109987, -27.4388368], [-59.0111674, -27.4380002], [-59.0113203, -27.4377778], [-59.011615, -27.4377718], [-59.0120191, -27.4373251], [-59.0119935, -27.4364047], [-59.0116666, -27.4357536], [-59.0117761, -27.4353129], [-59.012025, -27.4351763]]]}}, {"type": "Feature", "properties": {"id": 5, "rango": "50 a 51 m", "cota_mop": "50 a 51 m", "altura_hidrometro_barranqueras": "8,2 a 9,2 m", "color": "#7070E6", "area_ha": 11.31}, "geometry": {"type": "Polygon", "coordinates": [[[-59.0090776, -27.4333509], [-59.0095597, -27.4336918], [-59.0098799, -27.4346062], [-59.0097323, -27.4365386], [-59.0081383, -27.4374482], [-59.0071997, -27.4376866], [-59.0067108, -27.4376089], [-59.0063314, -27.4370904], [-59.0062211, -27.4356456], [-59.0063718, -27.435511], [-59.0070136, -27.4353663], [-59.0076164, -27.4348278], [-59.0080864, -27.4337219], [-59.0090776, -27.4333509]]]}}, {"type": "Feature", "properties": {"id": 6, "rango": "50 a 51 m", "cota_mop": "50 a 51 m", "altura_hidrometro_barranqueras": "8,2 a 9,2 m", "color": "#7070E6", "area_ha": 4.0}, "geometry": {"type": "Polygon", "coordinates": [[[-58.9842845, -27.4470123], [-58.9853147, -27.4470352], [-58.9855892, -27.4478189], [-58.9861148, -27.4483782], [-58.986252, -27.44877], [-58.9856057, -27.4490902], [-58.9846213, -27.449198], [-58.9839472, -27.4486855], [-58.9839284, -27.447502], [-58.9842845, -27.4470123]]]}}, {"type": "Feature", "properties": {"id": 7, "rango": "50 a 51 m", "cota_mop": "50 a 51 m", "altura_hidrometro_barranqueras": "8,2 a 9,2 m", "color": "#7070E6", "area_ha": 10.51}, "geometry": {"type": "Polygon", "coordinates": [[[-59.001984, -27.4305139], [-59.0018602, -27.4295956], [-59.0021316, -27.4285815], [-59.0040457, -27.4285862], [-59.0043426, -27.4284925], [-59.0046943, -27.4281783], [-59.0048059, -27.4276498], [-59.0051598, -27.427248], [-59.0055917, -27.4276338], [-59.0063774, -27.4276178], [-59.0075193, -27.4271121], [-59.0080104, -27.427102], [-59.0082526, -27.4272287], [-59.008344, -27.4274899], [-59.0082323, -27.4280184], [-59.0075291, -27.4286466], [-59.0068851, -27.4288791], [-59.0065447, -27.4287544], [-59.0059554, -27.4287665], [-59.0047678, -27.4291415], [-59.0043682, -27.4294128], [-59.0038089, -27.4301697], [-59.0033066, -27.4306184], [-59.0029092, -27.430802], [-59.0023199, -27.430814], [-59.001984, -27.4305139]]]}}, {"type": "Feature", "properties": {"id": 8, "rango": "50 a 51 m", "cota_mop": "50 a 51 m", "altura_hidrometro_barranqueras": "8,2 a 9,2 m", "color": "#7070E6", "area_ha": 22.93}, "geometry": {"type": "Polygon", "coordinates": [[[-58.9957222, -27.4335359], [-58.9957881, -27.4328768], [-58.9962424, -27.4323852], [-58.9972336, -27.4320141], [-58.9974848, -27.4317897], [-58.9987549, -27.4320269], [-58.9984947, -27.4326023], [-58.9984835, -27.433041], [-58.998623, -27.4333451], [-58.9991073, -27.4335983], [-59.0001397, -27.4335334], [-59.0009434, -27.4328154], [-59.0019189, -27.4330586], [-59.0025082, -27.4330465], [-59.0040474, -27.4323573], [-59.0055041, -27.4310559], [-59.0060499, -27.4308255], [-59.0063401, -27.430995], [-59.006685, -27.4309441], [-59.0069474, -27.430281], [-59.0074497, -27.4298322], [-59.0083426, -27.4294632], [-59.0088337, -27.4294532], [-59.0093136, -27.4298819], [-59.0093983, -27.4304063], [-59.0092207, -27.4315939], [-59.009253, -27.432251], [-59.0090453, -27.4326938], [-59.0086022, -27.4327467], [-59.0084582, -27.4326181], [-59.00833, -27.4318752], [-59.0080443, -27.4315303], [-59.0072698, -27.4311076], [-59.0064383, -27.430993], [-59.0059293, -27.431705], [-59.0035684, -27.4338142], [-59.0026754, -27.4341832], [-59.0024355, -27.4339689], [-59.0016498, -27.4339849], [-59.0004442, -27.435062], [-58.9991741, -27.4348248], [-58.9977991, -27.4348529], [-58.9972622, -27.4347323], [-58.9957222, -27.4335359]]]}}, {"type": "Feature", "properties": {"id": 9, "rango": "50 a 51 m", "cota_mop": "50 a 51 m", "altura_hidrometro_barranqueras": "8,2 a 9,2 m", "color": "#7070E6", "area_ha": 3.87}, "geometry": {"type": "Polygon", "coordinates": [[[-58.9274522, -27.4928127], [-58.9277469, -27.4928067], [-58.928229, -27.4931477], [-58.9290313, -27.494403], [-58.9300825, -27.4955216], [-58.9302587, -27.4963073], [-58.9299484, -27.4969276], [-58.9288492, -27.4957661], [-58.9281998, -27.4942884], [-58.9273495, -27.4929902], [-58.9274522, -27.4928127]]]}}, {"type": "Feature", "properties": {"id": 10, "rango": "50 a 51 m", "cota_mop": "50 a 51 m", "altura_hidrometro_barranqueras": "8,2 a 9,2 m", "color": "#7070E6", "area_ha": 87.45}, "geometry": {"type": "Polygon", "coordinates": [[[-58.9841103, -27.4403945], [-58.9842677, -27.4399966], [-58.9847678, -27.4396356], [-58.9856997, -27.4396604], [-58.9868191, -27.4400322], [-58.9873604, -27.4399773], [-58.9881372, -27.4403122], [-58.9892176, -27.4402902], [-58.9908048, -27.4396438], [-58.9913071, -27.4391951], [-58.9915718, -27.4384442], [-58.9920306, -27.4377771], [-58.9938389, -27.4361615], [-58.9943757, -27.4362821], [-58.9947139, -27.4364945], [-58.9954472, -27.4366111], [-58.9959885, -27.4365562], [-58.9972039, -27.4370137], [-58.997572, -27.4379709], [-58.9983945, -27.4384365], [-58.9994727, -27.4385021], [-59.0006123, -27.4380842], [-59.0012496, -27.438115], [-59.0015375, -27.4383723], [-59.0018052, -27.4394192], [-59.0024246, -27.440152], [-59.0024636, -27.4405459], [-59.0021599, -27.4409029], [-59.0011688, -27.4412739], [-59.0006665, -27.4417227], [-59.0004566, -27.4422532], [-59.0002242, -27.4436612], [-58.9995667, -27.44442], [-58.9993725, -27.4443363], [-58.9986827, -27.4444381], [-58.997879, -27.4451561], [-58.9964515, -27.4453168], [-58.9963668, -27.4447923], [-58.9969305, -27.44386], [-58.9972822, -27.4435458], [-58.9984218, -27.4431279], [-58.999077, -27.4424568], [-58.9992344, -27.4420589], [-58.9992044, -27.441314], [-58.9986308, -27.4407119], [-58.9977446, -27.4408177], [-58.9968929, -27.4414928], [-58.9961964, -27.4418578], [-58.9952443, -27.4426227], [-58.9945365, -27.4434265], [-58.9942217, -27.4442222], [-58.9936211, -27.444673], [-58.9930296, -27.4447728], [-58.992399, -27.4444787], [-58.9908365, -27.4441598], [-58.9901647, -27.4435596], [-58.9898813, -27.4431269], [-58.9894472, -27.4428288], [-58.9888099, -27.442798], [-58.9875698, -27.4433057], [-58.9869347, -27.4431871], [-58.9857396, -27.4419398], [-58.9851705, -27.4411621], [-58.9843412, -27.4409598], [-58.9841493, -27.4407883], [-58.9841103, -27.4403945]]]}}, {"type": "Feature", "properties": {"id": 11, "rango": "50 a 51 m", "cota_mop": "50 a 51 m", "altura_hidrometro_barranqueras": "8,2 a 9,2 m", "color": "#7070E6", "area_ha": 9.34}, "geometry": {"type": "Polygon", "coordinates": [[[-58.995198, -27.4310033], [-58.9951343, -27.4315746], [-58.9946777, -27.432154], [-58.9944678, -27.4326845], [-58.9935771, -27.4329658], [-58.9925222, -27.4339082], [-58.9919464, -27.4333938], [-58.9917589, -27.4330468], [-58.9915894, -27.4319978], [-58.991306, -27.4315651], [-58.9914634, -27.4311672], [-58.9921142, -27.4306716], [-58.9929044, -27.4304801], [-58.994131, -27.4304989], [-58.995198, -27.4310033]]]}}, {"type": "Feature", "properties": {"id": 12, "rango": "50 a 51 m", "cota_mop": "50 a 51 m", "altura_hidrometro_barranqueras": "8,2 a 9,2 m", "color": "#7070E6", "area_ha": 4.54}, "geometry": {"type": "Polygon", "coordinates": [[[-58.9844602, -27.4363092], [-58.9850975, -27.4363401], [-58.9857738, -27.4367647], [-58.9869937, -27.4370468], [-58.9872816, -27.437304], [-58.9872112, -27.4381386], [-58.9866564, -27.43872], [-58.986364, -27.4386383], [-58.9857881, -27.4381238], [-58.9843808, -27.4374948], [-58.9843073, -27.4365316], [-58.9844602, -27.4363092]]]}}, {"type": "Feature", "properties": {"id": 13, "rango": "50 a 51 m", "cota_mop": "50 a 51 m", "altura_hidrometro_barranqueras": "8,2 a 9,2 m", "color": "#7070E6", "area_ha": 3.94}, "geometry": {"type": "Polygon", "coordinates": [[[-58.9277637, -27.4844748], [-58.9278776, -27.4838585], [-58.9291747, -27.4830427], [-58.9299124, -27.4829838], [-58.9302986, -27.4832391], [-58.9303286, -27.4839839], [-58.929324, -27.4848814], [-58.9283395, -27.4849892], [-58.9279512, -27.4848218], [-58.9277637, -27.4844748]]]}}, {"type": "Feature", "properties": {"id": 14, "rango": "50 a 51 m", "cota_mop": "50 a 51 m", "altura_hidrometro_barranqueras": "8,2 a 9,2 m", "color": "#7070E6", "area_ha": 17.95}, "geometry": {"type": "Polygon", "coordinates": [[[-58.9683553, -27.4480392], [-58.9688943, -27.4480721], [-58.9698106, -27.4487111], [-58.9699846, -27.4495846], [-58.9698249, -27.4500702], [-58.9686238, -27.4509717], [-58.9685189, -27.451237], [-58.9685009, -27.451939], [-58.9686359, -27.4524186], [-58.9685175, -27.4532103], [-58.9678779, -27.4532672], [-58.9675465, -27.4527916], [-58.9670119, -27.4525833], [-58.9654974, -27.4523072], [-58.9643847, -27.4516722], [-58.9649028, -27.4506092], [-58.9650167, -27.449993], [-58.9663572, -27.4493955], [-58.9677112, -27.4482716], [-58.9683553, -27.4480392]]]}}, {"type": "Feature", "properties": {"id": 15, "rango": "50 a 51 m", "cota_mop": "50 a 51 m", "altura_hidrometro_barranqueras": "8,2 a 9,2 m", "color": "#7070E6", "area_ha": 2.8}, "geometry": {"type": "Polygon", "coordinates": [[[-58.9833489, -27.4337009], [-58.9836023, -27.4333887], [-58.9843993, -27.432934], [-58.9850366, -27.4329648], [-58.9853155, -27.433573], [-58.9850029, -27.434281], [-58.9844024, -27.4347318], [-58.9839113, -27.4347418], [-58.9833835, -27.4342702], [-58.9833489, -27.4337009]]]}}, {"type": "Feature", "properties": {"id": 16, "rango": "50 a 51 m", "cota_mop": "50 a 51 m", "altura_hidrometro_barranqueras": "8,2 a 9,2 m", "color": "#7070E6", "area_ha": 1497.46}, "geometry": {"type": "Polygon", "coordinates": [[[-58.9673879, -27.4455595], [-58.9688304, -27.442899], [-58.9700045, -27.4430504], [-58.9713683, -27.4434611], [-58.9745638, -27.4432643], [-58.9750593, -27.4430788], [-58.9779113, -27.4409596], [-58.9785419, -27.4412536], [-58.9791155, -27.4418558], [-58.9795864, -27.4426355], [-58.9797626, -27.4434212], [-58.9801352, -27.4442029], [-58.981643, -27.4447422], [-58.9823673, -27.4452098], [-58.9827467, -27.4457282], [-58.9814407, -27.446895], [-58.9809317, -27.447607], [-58.9807608, -27.4485314], [-58.980994, -27.449009], [-58.9814281, -27.449307], [-58.9819649, -27.4494276], [-58.9823376, -27.4502093], [-58.9832516, -27.4509361], [-58.9838844, -27.4511425], [-58.9840696, -27.4515772], [-58.9844055, -27.4518773], [-58.9849401, -27.4520856], [-58.9855159, -27.4526001], [-58.9863384, -27.4530656], [-58.9868273, -27.4531433], [-58.9871766, -27.452917], [-58.9882135, -27.4526765], [-58.9885652, -27.4523624], [-58.9885831, -27.4516604], [-58.9882105, -27.4508787], [-58.9873467, -27.450107], [-58.9867184, -27.4497252], [-58.986974, -27.4493253], [-58.9882944, -27.4495176], [-58.9903112, -27.4493449], [-58.9923513, -27.4501803], [-58.9933268, -27.4504234], [-58.9936649, -27.4506358], [-58.9937564, -27.450897], [-58.993581, -27.4519969], [-58.9941134, -27.452293], [-58.9947049, -27.4521932], [-58.9951068, -27.4518342], [-58.9951907, -27.4504731], [-58.9962455, -27.4495307], [-58.9966586, -27.4487329], [-58.9965851, -27.4477697], [-58.9959178, -27.446994], [-58.9957348, -27.4464716], [-58.9957918, -27.4461634], [-58.9962941, -27.4457147], [-58.9970071, -27.446621], [-58.997592, -27.4467844], [-58.9978319, -27.4469988], [-58.9979467, -27.4482681], [-58.9985225, -27.4487826], [-59.0004277, -27.4491383], [-59.0022938, -27.4491002], [-59.0027916, -27.4488269], [-59.0031343, -27.4488638], [-59.0042192, -27.4486662], [-59.0047147, -27.4484807], [-59.0049681, -27.4481686], [-59.0049561, -27.4467218], [-59.0051817, -27.445577], [-59.0054351, -27.4452649], [-59.0064307, -27.4447184], [-59.0073851, -27.4438657], [-59.0082781, -27.4434967], [-59.0097056, -27.443336], [-59.0103061, -27.4428852], [-59.010852, -27.4426548], [-59.0126221, -27.442531], [-59.0140564, -27.442107], [-59.0153557, -27.4412035], [-59.0162809, -27.4414915], [-59.0169025, -27.4421366], [-59.0164459, -27.442716], [-59.0163755, -27.4435506], [-59.0157269, -27.4439585], [-59.0143909, -27.4443804], [-59.0132378, -27.4453248], [-59.0124978, -27.4454715], [-59.0109263, -27.4455036], [-59.0098849, -27.4459195], [-59.0094808, -27.4463663], [-59.0096113, -27.4470214], [-59.0101917, -27.4473603], [-59.0110689, -27.4476055], [-59.0114528, -27.4479485], [-59.0119672, -27.4489465], [-59.0128309, -27.4497182], [-59.0133655, -27.4499265], [-59.0143454, -27.4499942], [-59.0155106, -27.4504966], [-59.0162918, -27.4506561], [-59.0171758, -27.450638], [-59.0179705, -27.450271], [-59.0184796, -27.449559], [-59.0185545, -27.4485489], [-59.018328, -27.4478081], [-59.0175212, -27.4467283], [-59.017384, -27.4463364], [-59.0175939, -27.4458059], [-59.018046, -27.4454021], [-59.0189255, -27.4455595], [-59.0197022, -27.4458944], [-59.0202436, -27.4458395], [-59.0203988, -27.4455294], [-59.0207961, -27.4453459], [-59.0215617, -27.4461196], [-59.0234421, -27.4474405], [-59.023892, -27.4471244], [-59.0241476, -27.4467245], [-59.0247369, -27.4467125], [-59.0254612, -27.4471801], [-59.026046, -27.4473435], [-59.0270515, -27.4483316], [-59.0273941, -27.4483684], [-59.0283561, -27.4491381], [-59.0284319, -27.4500135], [-59.028069, -27.4507664], [-59.027377, -27.4509559], [-59.0274595, -27.4515682], [-59.0279806, -27.452303], [-59.0318698, -27.4556878], [-59.0332224, -27.4565371], [-59.033892, -27.4572251], [-59.0340045, -27.4585822], [-59.0349597, -27.4596151], [-59.0354943, -27.4598234], [-59.0359374, -27.4597705], [-59.0361796, -27.4598971], [-59.0376192, -27.4611832], [-59.038204, -27.4613467], [-59.0384987, -27.4613407], [-59.0386996, -27.4611612], [-59.0393759, -27.4615859], [-59.0395723, -27.4615818], [-59.0399329, -27.4609167], [-59.0403805, -27.4606883], [-59.0418103, -27.4604399], [-59.0423014, -27.4604299], [-59.0426418, -27.4605545], [-59.0435055, -27.4613261], [-59.0435154, -27.4628607], [-59.0434104, -27.4631259], [-59.0425565, -27.4638888], [-59.0422483, -27.4644213], [-59.0420999, -27.4644682], [-59.0420407, -27.4648641], [-59.041324, -27.4660188], [-59.0387532, -27.4686585], [-59.0368076, -27.4698822], [-59.035368, -27.4685961], [-59.0341024, -27.4681834], [-59.0325377, -27.4679523], [-59.0316035, -27.4680152], [-59.0302194, -27.4683943], [-59.0295799, -27.4684512], [-59.0277182, -27.4683138], [-59.0247605, -27.4688127], [-59.0220561, -27.4689995], [-59.0211677, -27.469193], [-59.0196307, -27.4697945], [-59.0184731, -27.4709144], [-59.0179273, -27.4711448], [-59.0170779, -27.4717322], [-59.0159225, -27.4727643], [-59.0152283, -27.4730416], [-59.014687, -27.4730965], [-59.0124872, -27.4727468], [-59.0120508, -27.4725364], [-59.0108969, -27.4715953], [-59.0092976, -27.4707948], [-59.0086738, -27.4702375], [-59.0079383, -27.4702086], [-59.007388, -27.4706145], [-59.0067739, -27.4715918], [-59.0059245, -27.4721792], [-59.0037668, -27.4740211], [-59.0034699, -27.4741149], [-59.0028873, -27.4738637], [-59.0020536, -27.4738368], [-59.0006696, -27.4742159], [-58.9988514, -27.4742969], [-58.9969695, -27.4749492], [-58.9958254, -27.4755426], [-58.9948433, -27.4755627], [-58.9941647, -27.4752257], [-58.9934951, -27.4745378], [-58.9934082, -27.4741011], [-58.9936158, -27.4736583], [-58.9949474, -27.4734119], [-58.9968795, -27.4727147], [-58.9984779, -27.4716296], [-58.998843, -27.470789], [-58.9991466, -27.470432], [-59.000332, -27.4701447], [-59.000928, -27.4698694], [-59.0025399, -27.4682579], [-59.0040109, -27.4683155], [-59.0045043, -27.4682178], [-59.0047554, -27.4679934], [-59.0047689, -27.4674669], [-59.0025615, -27.4654949], [-59.0016632, -27.4641538], [-59.0016265, -27.4636722], [-59.0018866, -27.4630969], [-59.0018521, -27.4625275], [-59.0016602, -27.462356], [-59.0010708, -27.4623681], [-59.0003264, -27.4626902], [-59.000025, -27.4629595], [-59.0000093, -27.4635737], [-59.0007021, -27.4652697], [-59.0020435, -27.4665579], [-59.0020758, -27.4672149], [-59.0018748, -27.4673945], [-59.0008904, -27.4675023], [-59.0005276, -27.4682551], [-58.9999773, -27.468661], [-58.997698, -27.4694969], [-58.9970105, -27.4695109], [-58.9961835, -27.4692208], [-58.9951991, -27.4693286], [-58.9949479, -27.469553], [-58.9948842, -27.4701244], [-58.9951632, -27.4707326], [-58.9950927, -27.4715672], [-58.9946909, -27.4719262], [-58.9933069, -27.4723053], [-58.9917174, -27.4730393], [-58.9913155, -27.4733984], [-58.9912451, -27.474233], [-58.9915653, -27.4751473], [-58.9923676, -27.4764026], [-58.9924546, -27.4768393], [-58.9920146, -27.47869], [-58.9917109, -27.479047], [-58.9912678, -27.4790999], [-58.9909297, -27.4788876], [-58.9905638, -27.4778426], [-58.9900884, -27.4772384], [-58.9898619, -27.4764976], [-58.9893386, -27.4758505], [-58.9885618, -27.4755156], [-58.9870473, -27.4752395], [-58.9850071, -27.4744042], [-58.9838007, -27.4735957], [-58.982937, -27.472824], [-58.9822719, -27.4719606], [-58.9823235, -27.4699424], [-58.9819531, -27.4690729], [-58.9809979, -27.46804], [-58.9802211, -27.4677051], [-58.9798372, -27.4673621], [-58.9793641, -27.4666702], [-58.9780985, -27.4662575], [-58.9772415, -27.4652226], [-58.976506, -27.4651938], [-58.9757157, -27.4653853], [-58.97493, -27.4654013], [-58.9746376, -27.4653196], [-58.9743017, -27.4650195], [-58.9742649, -27.4645379], [-58.9748744, -27.4637362], [-58.9750476, -27.4627241], [-58.9748166, -27.4621587], [-58.9739461, -27.4616503], [-58.9739573, -27.4612116], [-58.9742175, -27.4606362], [-58.9742646, -27.4587935], [-58.9736453, -27.4580607], [-58.9727201, -27.4577726], [-58.9717761, -27.456301], [-58.9717918, -27.4556868], [-58.9720452, -27.4553746], [-58.9726435, -27.4550116], [-58.9736279, -27.4549038], [-58.974658, -27.4549266], [-58.9752841, -27.4553962], [-58.9762596, -27.4556394], [-58.9767237, -27.4566823], [-58.9781656, -27.4578807], [-58.978305, -27.4581848], [-58.9793787, -27.458426], [-58.9797491, -27.4592954], [-58.9797356, -27.4598219], [-58.9793773, -27.4603993], [-58.9793661, -27.460838], [-58.979558, -27.4610095], [-58.9800011, -27.4609566], [-58.9808573, -27.4601059], [-58.9815013, -27.4598735], [-58.9821041, -27.459335], [-58.9823597, -27.4589351], [-58.982889, -27.4574334], [-58.9836905, -27.4568031], [-58.9840488, -27.4562258], [-58.9840121, -27.4557442], [-58.9836806, -27.4552686], [-58.9829084, -27.4547581], [-58.9825747, -27.4543703], [-58.9823527, -27.453454], [-58.9818361, -27.4525437], [-58.9807324, -27.4515576], [-58.9805194, -27.4502903], [-58.9801333, -27.4500351], [-58.9797404, -27.4500431], [-58.9794915, -27.4501798], [-58.9795058, -27.4515388], [-58.9787434, -27.452563], [-58.9779944, -27.4530606], [-58.9775513, -27.4531135], [-58.9771127, -27.4529909], [-58.9756686, -27.4518803], [-58.9757682, -27.449905], [-58.9756287, -27.4496009], [-58.9741801, -27.4486657], [-58.9731724, -27.4477655], [-58.9725096, -27.4468143], [-58.9726213, -27.4462858], [-58.972772, -27.4461512], [-58.9732653, -27.4460534], [-58.9735097, -27.4460922], [-58.9738456, -27.4463923], [-58.9740309, -27.4468271], [-58.9743188, -27.4470843], [-58.9746592, -27.4472089], [-58.9752987, -27.447152], [-58.9755019, -27.4468847], [-58.9755266, -27.4459195], [-58.9757845, -27.4454319], [-58.9757979, -27.4449054], [-58.9752221, -27.444391], [-58.9747333, -27.4443132], [-58.973299, -27.4447372], [-58.9700578, -27.4448034], [-58.969464, -27.4449909], [-58.9688612, -27.4455294], [-58.9686033, -27.446017], [-58.9683042, -27.4461985], [-58.9678131, -27.4462086], [-58.9674772, -27.4459085], [-58.9673879, -27.4455595]], [[-59.0231261, -27.455954], [-59.0222399, -27.4560598], [-59.0213335, -27.4569553], [-59.0208612, -27.4581489], [-59.0200163, -27.4585608], [-59.0194135, -27.4590994], [-59.0192058, -27.4595421], [-59.0193955, -27.4598013], [-59.019592, -27.4597973], [-59.0211949, -27.4585368], [-59.0210052, -27.4582775], [-59.0212953, -27.458447], [-59.0219551, -27.4576004], [-59.0230579, -27.4567009], [-59.0231606, -27.4565234], [-59.0231261, -27.455954]], [[-59.0009109, -27.4571093], [-59.0002969, -27.4580865], [-59.0008548, -27.4593029], [-59.0033478, -27.46162], [-59.0036882, -27.4617446], [-59.0044762, -27.4616408], [-59.0051315, -27.4609696], [-59.0051494, -27.4602676], [-59.0045691, -27.4599287], [-59.0032945, -27.459867], [-59.0029541, -27.4597424], [-59.0018549, -27.4585809], [-59.0016921, -27.4572687], [-59.001354, -27.4570564], [-59.0009109, -27.4571093]]]}}, {"type": "Feature", "properties": {"id": 17, "rango": "50 a 51 m", "cota_mop": "50 a 51 m", "altura_hidrometro_barranqueras": "8,2 a 9,2 m", "color": "#7070E6", "area_ha": 10.35}, "geometry": {"type": "Polygon", "coordinates": [[[-58.9944394, -27.4203631], [-58.995118, -27.4207], [-58.9954996, -27.4211307], [-58.9953108, -27.4227571], [-58.9946811, -27.4243485], [-58.9938316, -27.424936], [-58.9931921, -27.4249929], [-58.9929499, -27.4248663], [-58.9926252, -27.4241274], [-58.9921476, -27.423611], [-58.992506, -27.4230336], [-58.9933644, -27.4220952], [-58.9933891, -27.42113], [-58.9935443, -27.4208199], [-58.9939963, -27.420416], [-58.9944394, -27.4203631]]]}}, {"type": "Feature", "properties": {"id": 18, "rango": "50 a 51 m", "cota_mop": "50 a 51 m", "altura_hidrometro_barranqueras": "8,2 a 9,2 m", "color": "#7070E6", "area_ha": 5.24}, "geometry": {"type": "Polygon", "coordinates": [[[-58.9593635, -27.4503277], [-58.9596147, -27.4501033], [-58.9602955, -27.4503525], [-58.9611592, -27.4511242], [-58.9624773, -27.4514042], [-58.9635945, -27.4518637], [-58.9634783, -27.4525677], [-58.962832, -27.4528879], [-58.9620965, -27.452859], [-58.9617104, -27.4526038], [-58.9613812, -27.4520405], [-58.9598277, -27.4513706], [-58.9593958, -27.4509848], [-58.9593635, -27.4503277]]]}}, {"type": "Feature", "properties": {"id": 19, "rango": "50 a 51 m", "cota_mop": "50 a 51 m", "altura_hidrometro_barranqueras": "8,2 a 9,2 m", "color": "#7070E6", "area_ha": 6.66}, "geometry": {"type": "Polygon", "coordinates": [[[-58.920218, -27.4820417], [-58.9208419, -27.482599], [-58.921315, -27.4832909], [-58.922085, -27.4838891], [-58.9227958, -27.4848832], [-58.9234385, -27.4866241], [-58.9236761, -27.4869262], [-58.9233155, -27.4875913], [-58.9228859, -27.4871177], [-58.9227599, -27.4862871], [-58.922289, -27.4855074], [-58.9220011, -27.4852502], [-58.9211194, -27.4851805], [-58.9203651, -27.4839681], [-58.9194556, -27.4830658], [-58.9201588, -27.4824375], [-58.920218, -27.4820417]]]}}, {"type": "Feature", "properties": {"id": 20, "rango": "50 a 51 m", "cota_mop": "50 a 51 m", "altura_hidrometro_barranqueras": "8,2 a 9,2 m", "color": "#7070E6", "area_ha": 2.83}, "geometry": {"type": "Polygon", "coordinates": [[[-58.9764897, -27.4236238], [-58.9770722, -27.423875], [-58.9777943, -27.4244303], [-58.9775297, -27.4251811], [-58.9771278, -27.4255402], [-58.9762941, -27.4255133], [-58.9758689, -27.4248643], [-58.9759874, -27.4240725], [-58.9764897, -27.4236238]]]}}, {"type": "Feature", "properties": {"id": 21, "rango": "50 a 51 m", "cota_mop": "50 a 51 m", "altura_hidrometro_barranqueras": "8,2 a 9,2 m", "color": "#7070E6", "area_ha": 12.64}, "geometry": {"type": "Polygon", "coordinates": [[[-58.9118788, -27.4722579], [-58.9122694, -27.4723376], [-58.9127972, -27.4728092], [-58.9131856, -27.4729767], [-58.9134323, -27.4729278], [-58.9140081, -27.4734422], [-58.9149813, -27.4737732], [-58.9155572, -27.4742876], [-58.9156464, -27.4746366], [-58.915384, -27.4752997], [-58.9154777, -27.4754732], [-58.9157702, -27.4755549], [-58.9161061, -27.475855], [-58.9161016, -27.4760305], [-58.9157477, -27.4764324], [-58.9155858, -27.4770058], [-58.9159629, -27.477612], [-58.913068, -27.475654], [-58.9118204, -27.4745393], [-58.91145, -27.4736699], [-58.9114634, -27.4731434], [-58.9118788, -27.4722579]]]}}, {"type": "Feature", "properties": {"id": 22, "rango": "50 a 51 m", "cota_mop": "50 a 51 m", "altura_hidrometro_barranqueras": "8,2 a 9,2 m", "color": "#7070E6", "area_ha": 16.03}, "geometry": {"type": "Polygon", "coordinates": [[[-58.94923, -27.4377741], [-58.9499063, -27.4381988], [-58.9499498, -27.4384171], [-58.9496761, -27.439519], [-58.9502843, -27.4406905], [-58.9504058, -27.4416966], [-58.9503219, -27.4430577], [-58.9505918, -27.4440169], [-58.9505057, -27.4454657], [-58.9501473, -27.4460431], [-58.9498527, -27.4460491], [-58.9495625, -27.4458797], [-58.9494845, -27.4450919], [-58.9489221, -27.444051], [-58.9487001, -27.4431347], [-58.9476924, -27.4422344], [-58.947553, -27.4419303], [-58.9476781, -27.4408753], [-58.9482006, -27.4396368], [-58.9483872, -27.4380982], [-58.9485402, -27.4378759], [-58.94923, -27.4377741]]]}}, {"type": "Feature", "properties": {"id": 23, "rango": "50 a 51 m", "cota_mop": "50 a 51 m", "altura_hidrometro_barranqueras": "8,2 a 9,2 m", "color": "#7070E6", "area_ha": 87.84}, "geometry": {"type": "Polygon", "coordinates": [[[-58.9739183, -27.4147746], [-58.9749274, -27.4137016], [-58.976076, -27.4129327], [-58.9765671, -27.4129226], [-58.9768573, -27.4130921], [-58.977182, -27.4138309], [-58.9772142, -27.414488], [-58.9774062, -27.4146595], [-58.9776986, -27.4147413], [-58.9781919, -27.4146435], [-58.9785503, -27.4140661], [-58.9785427, -27.4124438], [-58.9786477, -27.4121785], [-58.9798398, -27.411628], [-58.9801411, -27.4113587], [-58.9802551, -27.4107425], [-58.980456, -27.410563], [-58.9808511, -27.4104672], [-58.9813857, -27.4106756], [-58.9817786, -27.4106675], [-58.9823244, -27.4104371], [-58.9822876, -27.4099555], [-58.981013, -27.4098939], [-58.9814674, -27.4094022], [-58.9821181, -27.4089066], [-58.9831093, -27.4085355], [-58.9846261, -27.4087238], [-58.9851127, -27.4088893], [-58.9846494, -27.4097319], [-58.9846381, -27.4101706], [-58.9847798, -27.410387], [-58.9861594, -27.4101834], [-58.9876124, -27.4109431], [-58.9883959, -27.4110148], [-58.988992, -27.4107395], [-58.9892342, -27.4108661], [-58.9887874, -27.4129801], [-58.988486, -27.4132493], [-58.9879904, -27.4134348], [-58.9876343, -27.4139245], [-58.9864835, -27.4147811], [-58.9864198, -27.4153525], [-58.9867535, -27.4157403], [-58.9878729, -27.4161121], [-58.9894654, -27.4171759], [-58.9906328, -27.4175905], [-58.99077, -27.4179824], [-58.9906973, -27.4189047], [-58.9904919, -27.4192597], [-58.9897932, -27.4197125], [-58.9891169, -27.4192878], [-58.9884841, -27.4190815], [-58.9883468, -27.4186896], [-58.9877208, -27.4182201], [-58.9865489, -27.4179809], [-58.984532, -27.4181536], [-58.9837508, -27.4179942], [-58.9826928, -27.4171388], [-58.9808559, -27.4160362], [-58.9791862, -27.4160702], [-58.9775779, -27.4156207], [-58.9752274, -27.4154056], [-58.974243, -27.4155134], [-58.9739528, -27.415344], [-58.9739183, -27.4147746]]]}}, {"type": "Feature", "properties": {"id": 24, "rango": "50 a 51 m", "cota_mop": "50 a 51 m", "altura_hidrometro_barranqueras": "8,2 a 9,2 m", "color": "#7070E6", "area_ha": 127.95}, "geometry": {"type": "Polygon", "coordinates": [[[-58.9365845, -27.4370676], [-58.9365567, -27.436235], [-58.9370088, -27.4358311], [-58.9387377, -27.4354012], [-58.9400146, -27.4353751], [-58.9407958, -27.4355345], [-58.9415336, -27.4354756], [-58.943093, -27.4339967], [-58.9440819, -27.4337134], [-58.9449359, -27.4329505], [-58.9454472, -27.4321508], [-58.9463446, -27.4316062], [-58.9468971, -27.4311126], [-58.9485368, -27.4303336], [-58.9492445, -27.4295299], [-58.9505371, -27.4288896], [-58.9525899, -27.4273129], [-58.9532316, -27.4271682], [-58.9538824, -27.4266726], [-58.9554216, -27.4259834], [-58.9558804, -27.4253163], [-58.9560926, -27.424698], [-58.9559231, -27.4236491], [-58.9559568, -27.4223329], [-58.9564021, -27.4221922], [-58.9569044, -27.4217435], [-58.959533, -27.4206812], [-58.9603322, -27.4201387], [-58.961819, -27.4195821], [-58.962472, -27.4189987], [-58.9645525, -27.4182546], [-58.9655002, -27.4176652], [-58.9663339, -27.4176921], [-58.9666833, -27.4174657], [-58.9674233, -27.417319], [-58.968401, -27.4174745], [-58.9687391, -27.4176868], [-58.9685638, -27.4187866], [-58.9690024, -27.4189092], [-58.9693383, -27.4192093], [-58.9696674, -27.4197727], [-58.96975, -27.4203849], [-58.9692979, -27.4207888], [-58.9690579, -27.4205744], [-58.9686673, -27.4204947], [-58.9683179, -27.4207211], [-58.9679896, -27.4220433], [-58.9673846, -27.4226696], [-58.9670375, -27.4228082], [-58.9664571, -27.4224693], [-58.9663311, -27.4216387], [-58.9660912, -27.4214243], [-58.9656526, -27.4213017], [-58.9648668, -27.4213178], [-58.9644192, -27.4215462], [-58.963485, -27.4216091], [-58.9621445, -27.4222065], [-58.9586979, -27.4226277], [-58.9580974, -27.4230785], [-58.9574766, -27.424319], [-58.9575111, -27.4248883], [-58.9580323, -27.4256231], [-58.9579183, -27.4262394], [-58.9568222, -27.4268757], [-58.9559158, -27.4277712], [-58.9547762, -27.4281891], [-58.9527024, -27.42867], [-58.9523005, -27.429029], [-58.9521319, -27.4298656], [-58.9523606, -27.4305187], [-58.9523471, -27.4310451], [-58.9519363, -27.4317551], [-58.9518111, -27.4328101], [-58.9519461, -27.4332897], [-58.952282, -27.4335898], [-58.9529628, -27.433839], [-58.9533445, -27.4342697], [-58.9534247, -27.4349697], [-58.9530094, -27.4358552], [-58.952765, -27.4358163], [-58.9524291, -27.4355162], [-58.9521524, -27.4348203], [-58.9518142, -27.4346079], [-58.9495619, -27.4343908], [-58.9492628, -27.4345723], [-58.9492403, -27.4354498], [-58.948834, -27.4359843], [-58.9487133, -27.4368638], [-58.9484599, -27.4371759], [-58.9478204, -27.4372328], [-58.9472378, -27.4369816], [-58.9466642, -27.4363794], [-58.9462713, -27.4363874], [-58.9456663, -27.4370137], [-58.9447779, -27.4372072], [-58.9445267, -27.4374316], [-58.9442163, -27.4380519], [-58.9439674, -27.4381885], [-58.9433301, -27.4381577], [-58.9430422, -27.4379004], [-58.9424094, -27.4376941], [-58.9397553, -27.437836], [-58.9371649, -27.4374066], [-58.9365845, -27.4370676]]]}}, {"type": "Feature", "properties": {"id": 25, "rango": "50 a 51 m", "cota_mop": "50 a 51 m", "altura_hidrometro_barranqueras": "8,2 a 9,2 m", "color": "#7070E6", "area_ha": 24.01}, "geometry": {"type": "Polygon", "coordinates": [[[-58.941363, -27.4267967], [-58.9419635, -27.4263459], [-58.9429479, -27.4262381], [-58.9438409, -27.4258691], [-58.945072, -27.4257124], [-58.9456366, -27.4266656], [-58.9462739, -27.4266964], [-58.9469681, -27.4264191], [-58.9474592, -27.4264091], [-58.9478476, -27.4265766], [-58.948371, -27.4272236], [-58.9484055, -27.427793], [-58.9477915, -27.4287702], [-58.9467344, -27.4298004], [-58.9464218, -27.4305084], [-58.945819, -27.4310469], [-58.9454216, -27.4312304], [-58.9448435, -27.4308037], [-58.9443292, -27.4298057], [-58.9438013, -27.4293341], [-58.9426272, -27.4291827], [-58.9420948, -27.4288866], [-58.9420626, -27.4282295], [-58.942229, -27.4274806], [-58.9420873, -27.4272643], [-58.941363, -27.4267967]]]}}, {"type": "Feature", "properties": {"id": 26, "rango": "50 a 51 m", "cota_mop": "50 a 51 m", "altura_hidrometro_barranqueras": "8,2 a 9,2 m", "color": "#7070E6", "area_ha": 160.51}, "geometry": {"type": "Polygon", "coordinates": [[[-58.914463, -27.4383963], [-58.9144218, -27.4380902], [-58.9155614, -27.4376723], [-58.9159655, -27.4372255], [-58.9160224, -27.4369174], [-58.9175917, -27.4369731], [-58.9179388, -27.4368344], [-58.9180828, -27.4369631], [-58.9188183, -27.4369919], [-58.9205997, -27.4364293], [-58.9219267, -27.4363584], [-58.9222761, -27.436132], [-58.9237104, -27.435708], [-58.9240118, -27.4354388], [-58.9241782, -27.4346899], [-58.9244293, -27.4344655], [-58.9252743, -27.4340536], [-58.927049, -27.4337543], [-58.9283393, -27.4332017], [-58.9298215, -27.4328206], [-58.930671, -27.4322332], [-58.9309746, -27.4318762], [-58.931968, -27.4314174], [-58.9325986, -27.4317115], [-58.9343162, -27.4317203], [-58.9348643, -27.4314022], [-58.9360497, -27.4311148], [-58.9367529, -27.4304866], [-58.9369314, -27.4311845], [-58.937553, -27.4318296], [-58.9382862, -27.4319462], [-58.9385876, -27.4316769], [-58.9386011, -27.4311504], [-58.9381849, -27.4301504], [-58.9381939, -27.4297994], [-58.9390389, -27.4293875], [-58.9397676, -27.4296796], [-58.9402475, -27.4301083], [-58.9406224, -27.4308022], [-58.9412462, -27.4313595], [-58.9410896, -27.433643], [-58.94069, -27.4339142], [-58.9394177, -27.4337648], [-58.936912, -27.4338598], [-58.9353338, -27.4341552], [-58.9327779, -27.434295], [-58.9313916, -27.4347619], [-58.9299326, -27.436151], [-58.9297272, -27.436506], [-58.9297138, -27.4370325], [-58.9303308, -27.4378531], [-58.9334087, -27.4403335], [-58.9333952, -27.44086], [-58.9331441, -27.4410844], [-58.9326005, -27.4412271], [-58.9300468, -27.4412792], [-58.9287633, -27.4415685], [-58.9282152, -27.4418867], [-58.9271559, -27.4430046], [-58.9269092, -27.4430534], [-58.9265186, -27.4429737], [-58.925214, -27.4421672], [-58.9247251, -27.4420895], [-58.9241336, -27.4421893], [-58.9237842, -27.4424157], [-58.9235788, -27.4427706], [-58.9235631, -27.4433849], [-58.923938, -27.4440788], [-58.9239747, -27.4445604], [-58.9238698, -27.4448257], [-58.9227692, -27.4456375], [-58.9218807, -27.445831], [-58.921095, -27.4458471], [-58.9207066, -27.4456796], [-58.920037, -27.4449917], [-58.9198541, -27.4444692], [-58.9198743, -27.4436795], [-58.9201914, -27.442796], [-58.920312, -27.4419165], [-58.9201771, -27.4414369], [-58.9196012, -27.4409224], [-58.9188702, -27.4407181], [-58.9170543, -27.4407114], [-58.9160788, -27.4404682], [-58.9151191, -27.4396108], [-58.914463, -27.4383963]]]}}]}