{"type": "FeatureCollection", "name": "cotas_49_a_50m", "features": [{"type": "Feature", "properties": {"id": 1, "rango": "49 a 50 m", "cota_mop": "49 a 50 m", "altura_hidrometro_barranqueras": "7,2 a 8,2 m", "color": "#90DC90", "area_ha": 3.08}, "geometry": {"type": "Polygon", "coordinates": [[[-59.0359119, -27.4588502], [-59.0375111, -27.4596507], [-59.0383749, -27.4604223], [-59.0386516, -27.4611183], [-59.0384507, -27.4612978], [-59.0376694, -27.4611383], [-59.0359876, -27.4597256], [-59.0359119, -27.4588502]]]}}, {"type": "Feature", "properties": {"id": 2, "rango": "49 a 50 m", "cota_mop": "49 a 50 m", "altura_hidrometro_barranqueras": "7,2 a 8,2 m", "color": "#90DC90", "area_ha": 15.02}, "geometry": {"type": "Polygon", "coordinates": [[[-58.9671893, -27.507042], [-58.9659747, -27.5084701], [-58.9646777, -27.5092859], [-58.9624195, -27.5112175], [-58.9612544, -27.5107151], [-58.9607243, -27.5103313], [-58.9607377, -27.5098048], [-58.9625918, -27.5083199], [-58.9632561, -27.5072978], [-58.9640575, -27.5066675], [-58.9645029, -27.5065268], [-58.9651904, -27.5065128], [-58.9671893, -27.507042]]]}}, {"type": "Feature", "properties": {"id": 3, "rango": "49 a 50 m", "cota_mop": "49 a 50 m", "altura_hidrometro_barranqueras": "7,2 a 8,2 m", "color": "#90DC90", "area_ha": 2.63}, "geometry": {"type": "Polygon", "coordinates": [[[-58.9575908, -27.5061856], [-58.9582281, -27.5062165], [-58.9585595, -27.5066921], [-58.9584891, -27.5075267], [-58.9581308, -27.508104], [-58.9575414, -27.5081161], [-58.9571576, -27.5077731], [-58.9570181, -27.507469], [-58.9570908, -27.5065467], [-58.9575908, -27.5061856]]]}}, {"type": "Feature", "properties": {"id": 4, "rango": "49 a 50 m", "cota_mop": "49 a 50 m", "altura_hidrometro_barranqueras": "7,2 a 8,2 m", "color": "#90DC90", "area_ha": 8.16}, "geometry": {"type": "Polygon", "coordinates": [[[-59.0009589, -27.4571521], [-59.0013038, -27.4571012], [-59.0016419, -27.4573136], [-59.0018047, -27.4586258], [-59.0029039, -27.4597873], [-59.0032443, -27.4599119], [-59.0045189, -27.4599736], [-59.0050992, -27.4603125], [-59.0050835, -27.4609268], [-59.0044282, -27.4615979], [-59.0037384, -27.4616997], [-59.0033981, -27.4615751], [-59.000905, -27.4592581], [-59.0003449, -27.4581294], [-59.0009589, -27.4571521]]]}}, {"type": "Feature", "properties": {"id": 5, "rango": "49 a 50 m", "cota_mop": "49 a 50 m", "altura_hidrometro_barranqueras": "7,2 a 8,2 m", "color": "#90DC90", "area_ha": 9.05}, "geometry": {"type": "Polygon", "coordinates": [[[-58.9851792, -27.4504144], [-58.9866179, -27.449815], [-58.9869103, -27.4498967], [-58.9881602, -27.4509236], [-58.9885329, -27.4517053], [-58.9885172, -27.4523195], [-58.9881656, -27.4526337], [-58.9871287, -27.4528741], [-58.9867793, -27.4531005], [-58.9863887, -27.4530207], [-58.9855661, -27.4525552], [-58.9850383, -27.4520836], [-58.9850765, -27.4505919], [-58.9851792, -27.4504144]]]}}, {"type": "Feature", "properties": {"id": 6, "rango": "49 a 50 m", "cota_mop": "49 a 50 m", "altura_hidrometro_barranqueras": "7,2 a 8,2 m", "color": "#90DC90", "area_ha": 3.49}, "geometry": {"type": "Polygon", "coordinates": [[[-59.0016978, -27.4340278], [-59.0023853, -27.4340138], [-59.0025772, -27.4341852], [-59.0023426, -27.4356809], [-59.0025803, -27.435983], [-59.0010066, -27.4361029], [-59.0005357, -27.4353232], [-59.0004922, -27.4351048], [-59.0006954, -27.4348376], [-59.0016978, -27.4340278]]]}}, {"type": "Feature", "properties": {"id": 7, "rango": "49 a 50 m", "cota_mop": "49 a 50 m", "altura_hidrometro_barranqueras": "7,2 a 8,2 m", "color": "#90DC90", "area_ha": 5.01}, "geometry": {"type": "Polygon", "coordinates": [[[-58.972864, -27.4579012], [-58.973595, -27.4581056], [-58.9742144, -27.4588384], [-58.9741695, -27.4605933], [-58.9739049, -27.4613442], [-58.972559, -27.4602315], [-58.9722778, -27.4597111], [-58.9722958, -27.4590091], [-58.972864, -27.4579012]]]}}, {"type": "Feature", "properties": {"id": 8, "rango": "49 a 50 m", "cota_mop": "49 a 50 m", "altura_hidrometro_barranqueras": "7,2 a 8,2 m", "color": "#90DC90", "area_ha": 1777.51}, "geometry": {"type": "Polygon", "coordinates": [[[-58.9481453, -27.4897592], [-58.9482091, -27.4891878], [-58.9489648, -27.4884269], [-58.9492316, -27.4875883], [-58.9492496, -27.4868863], [-58.9491146, -27.4864067], [-58.9481616, -27.4852861], [-58.9479764, -27.4848513], [-58.9480446, -27.4841045], [-58.9486653, -27.482864], [-58.9485873, -27.4820763], [-58.948699, -27.4815478], [-58.949343, -27.4813154], [-58.95091, -27.4814588], [-58.9514034, -27.481361], [-58.9515541, -27.4812264], [-58.9517138, -27.4807408], [-58.9516882, -27.4798204], [-58.9518981, -27.4792899], [-58.953576, -27.4770193], [-58.9551901, -27.47532], [-58.9553475, -27.4749221], [-58.9553677, -27.4741324], [-58.9555709, -27.4738652], [-58.9563064, -27.473894], [-58.9568823, -27.4744084], [-58.9574169, -27.4746168], [-58.9602719, -27.4742954], [-58.9608769, -27.4736691], [-58.9615022, -27.4722531], [-58.962566, -27.4709597], [-58.9632692, -27.4703315], [-58.9629903, -27.4697233], [-58.9617382, -27.4687841], [-58.961361, -27.4681779], [-58.9605452, -27.4674491], [-58.9601569, -27.4672816], [-58.9596178, -27.4672488], [-58.9591724, -27.4673894], [-58.9587159, -27.4679688], [-58.9586934, -27.4688463], [-58.9592993, -27.4701056], [-58.9591831, -27.4708096], [-58.9586328, -27.4712155], [-58.9577968, -27.4712764], [-58.9572622, -27.471068], [-58.9559688, -27.4698228], [-58.9559388, -27.4690779], [-58.9570919, -27.4681335], [-58.9580575, -27.4668422], [-58.9589115, -27.4660793], [-58.9598044, -27.4657102], [-58.9606404, -27.4656493], [-58.9614696, -27.4658516], [-58.9628132, -27.467052], [-58.9641246, -27.4675953], [-58.9650085, -27.4675772], [-58.9660477, -27.467249], [-58.9664975, -27.4669329], [-58.9669061, -27.4663107], [-58.9671205, -27.4656047], [-58.967104, -27.4643333], [-58.9673251, -27.4633641], [-58.9675328, -27.4629214], [-58.9679803, -27.462693], [-58.9686154, -27.4628116], [-58.9704133, -27.4635203], [-58.9711968, -27.463592], [-58.9728253, -27.4632518], [-58.9732272, -27.4628928], [-58.9735922, -27.4620522], [-58.9739941, -27.4616932], [-58.9745744, -27.4620321], [-58.9749538, -27.4625506], [-58.9749883, -27.4631199], [-58.9748264, -27.4636933], [-58.9742169, -27.464495], [-58.9742514, -27.4650644], [-58.9745873, -27.4653645], [-58.9748797, -27.4654462], [-58.9757637, -27.4654282], [-58.9765539, -27.4652366], [-58.9771912, -27.4652675], [-58.9780483, -27.4663024], [-58.9793139, -27.466715], [-58.979787, -27.467407], [-58.9801709, -27.46775], [-58.9809477, -27.4680849], [-58.9819029, -27.4691178], [-58.9822733, -27.4699873], [-58.9822217, -27.4720054], [-58.9828868, -27.4728689], [-58.9837505, -27.4736405], [-58.9849569, -27.4744491], [-58.986997, -27.4752844], [-58.9885116, -27.4755604], [-58.9892883, -27.4758954], [-58.9898117, -27.4765425], [-58.9900382, -27.4772833], [-58.9905135, -27.4778875], [-58.9908795, -27.4789324], [-58.9912176, -27.4791448], [-58.9916105, -27.4791368], [-58.9919599, -27.4789104], [-58.9924981, -27.4770577], [-58.9924178, -27.4763577], [-58.9916155, -27.4751024], [-58.9912953, -27.4741881], [-58.9913635, -27.4734412], [-58.9917654, -27.4730822], [-58.9933548, -27.4723481], [-58.9947389, -27.4719691], [-58.9951407, -27.4716101], [-58.9952134, -27.4706877], [-58.9949345, -27.4700795], [-58.9949959, -27.4695959], [-58.9952471, -27.4693715], [-58.9961333, -27.4692657], [-58.9969603, -27.4695558], [-58.997746, -27.4695397], [-59.0000252, -27.4687039], [-59.0005755, -27.468298], [-59.0009384, -27.4675451], [-59.0019228, -27.4674373], [-59.0021237, -27.4672578], [-59.0020937, -27.466513], [-59.0007523, -27.4652248], [-59.0000595, -27.4635288], [-59.000073, -27.4630023], [-59.0003743, -27.4627331], [-59.0011188, -27.4624109], [-59.0016099, -27.4624009], [-59.0018019, -27.4625724], [-59.0018386, -27.463054], [-59.0016332, -27.463409], [-59.0015695, -27.4639803], [-59.0019902, -27.4648049], [-59.0025113, -27.4655397], [-59.0047187, -27.4675118], [-59.0047074, -27.4679505], [-59.0044563, -27.4681749], [-59.0039629, -27.4682727], [-59.0024919, -27.468215], [-59.00088, -27.4698266], [-59.0005809, -27.4700081], [-58.9990986, -27.4703891], [-58.998795, -27.4707461], [-58.9984299, -27.4715868], [-58.9968315, -27.4726718], [-58.9948994, -27.473369], [-58.9935678, -27.4736155], [-58.9933602, -27.4740582], [-58.9934449, -27.4745827], [-58.9941145, -27.4752706], [-58.994793, -27.4756076], [-58.9958734, -27.4755855], [-58.9970175, -27.4749921], [-58.9988994, -27.4743398], [-59.0007175, -27.4742588], [-59.0021016, -27.4738797], [-59.0028371, -27.4739085], [-59.0034197, -27.4741597], [-59.0038148, -27.474064], [-59.0059725, -27.472222], [-59.0068219, -27.4716346], [-59.0074359, -27.4706574], [-59.0079862, -27.4702515], [-59.0086235, -27.4702823], [-59.0092474, -27.4708397], [-59.0108466, -27.4716402], [-59.0122427, -27.4727079], [-59.0146367, -27.4731414], [-59.0152763, -27.4730845], [-59.0159705, -27.4728072], [-59.0171258, -27.471775], [-59.0179753, -27.4711876], [-59.0185211, -27.4709572], [-59.0196787, -27.4698373], [-59.0212156, -27.4692359], [-59.0221041, -27.4690423], [-59.0248085, -27.4688556], [-59.0277662, -27.4683567], [-59.0295297, -27.4684961], [-59.0302674, -27.4684371], [-59.0314048, -27.468107], [-59.0324874, -27.4679972], [-59.0340522, -27.4682283], [-59.0353178, -27.468641], [-59.0367574, -27.4699271], [-59.0362573, -27.4702881], [-59.0357505, -27.4709124], [-59.0347961, -27.471765], [-59.0323962, -27.4734803], [-59.0313894, -27.4744656], [-59.0305767, -27.4755346], [-59.0295743, -27.4763444], [-59.0285284, -27.4769358], [-59.0238044, -27.4812419], [-59.0228882, -27.4806029], [-59.0194842, -27.4793569], [-59.0166283, -27.4777927], [-59.0161372, -27.4778028], [-59.0156416, -27.4779883], [-59.0149384, -27.4786165], [-59.0132103, -27.4809321], [-59.0112123, -27.4822884], [-59.0099834, -27.4823573], [-59.0089645, -27.4818958], [-59.0077926, -27.4816566], [-59.0067624, -27.4816338], [-59.0062189, -27.4817764], [-59.0052075, -27.4829372], [-59.0040522, -27.4839694], [-59.0032328, -27.4853016], [-59.0023811, -27.4859768], [-59.0008898, -27.4867088], [-58.9968211, -27.4903438], [-58.9963623, -27.4910109], [-58.9960407, -27.4920699], [-58.9960295, -27.4925086], [-58.9962124, -27.4930311], [-58.9971287, -27.4936702], [-58.9990916, -27.4956034], [-59.0000123, -27.4960669], [-59.0007434, -27.4962712], [-59.0028997, -27.4964026], [-59.0035782, -27.4967395], [-59.0049196, -27.4980277], [-59.0033189, -27.4992005], [-58.9997022, -27.5024316], [-58.9986931, -27.5035046], [-58.9971427, -27.5046325], [-58.9963892, -27.5053057], [-58.9960811, -27.5058382], [-58.9933916, -27.5035251], [-58.9930167, -27.5028312], [-58.9930279, -27.5023925], [-58.9931329, -27.5021272], [-58.9937836, -27.5016316], [-58.9954601, -27.5013342], [-58.9963118, -27.5006591], [-58.9969895, -27.4991105], [-58.997695, -27.4983945], [-58.9978636, -27.4975579], [-58.9974999, -27.4964252], [-58.9968828, -27.4956046], [-58.9954432, -27.4943185], [-58.9940292, -27.4939527], [-58.9938372, -27.4937812], [-58.9938552, -27.4930792], [-58.9952272, -27.4912534], [-58.9953501, -27.4902861], [-58.9946572, -27.4885901], [-58.9939509, -27.4874206], [-58.9939635, -27.4850085], [-58.9935496, -27.4839207], [-58.9928643, -27.483847], [-58.992266, -27.48421], [-58.9915125, -27.4848832], [-58.9914578, -27.4851035], [-58.9917892, -27.4855791], [-58.992096, -27.4870199], [-58.9925099, -27.4881078], [-58.9927986, -27.4902505], [-58.9922784, -27.4914013], [-58.9920483, -27.4927215], [-58.9915347, -27.493609], [-58.9915168, -27.494311], [-58.9920356, -27.4951335], [-58.9927074, -27.4957337], [-58.9953324, -27.4967325], [-58.995666, -27.4971204], [-58.995753, -27.4975571], [-58.9955911, -27.4981305], [-58.9949246, -27.4992403], [-58.9946233, -27.4995096], [-58.9920449, -27.500527], [-58.9913416, -27.5011552], [-58.991116, -27.5022999], [-58.991338, -27.5032163], [-58.9917152, -27.5038225], [-58.9925309, -27.5045513], [-58.9929036, -27.505333], [-58.9927807, -27.5063002], [-58.9924291, -27.5066143], [-58.9916366, -27.5068936], [-58.9914357, -27.5070731], [-58.9911042, -27.5065975], [-58.9893745, -27.5051419], [-58.9880376, -27.5036783], [-58.9842879, -27.5005977], [-58.9812692, -27.4977213], [-58.9806522, -27.4969008], [-58.9801221, -27.4965169], [-58.979631, -27.496527], [-58.9789847, -27.4968471], [-58.9785828, -27.4972061], [-58.9778863, -27.4975711], [-58.9775805, -27.4980159], [-58.9760323, -27.4990561], [-58.9749752, -27.5000862], [-58.9745118, -27.5009288], [-58.9731578, -27.5020528], [-58.9722124, -27.5025544], [-58.9702032, -27.5043495], [-58.969395, -27.505243], [-58.9685935, -27.5058733], [-58.9687209, -27.5047305], [-58.968202, -27.503908], [-58.9682214, -27.5012327], [-58.9679882, -27.5007551], [-58.9676043, -27.5004121], [-58.9676155, -27.4999734], [-58.9679672, -27.4996593], [-58.9690085, -27.4992433], [-58.9696481, -27.4991864], [-58.9706738, -27.4993847], [-58.9713613, -27.4993707], [-58.9723022, -27.4990445], [-58.9727543, -27.4986406], [-58.973384, -27.4970492], [-58.9745416, -27.4959293], [-58.9750027, -27.4951744], [-58.9750206, -27.4944724], [-58.9745677, -27.4929907], [-58.9748301, -27.4923276], [-58.975636, -27.4915219], [-58.9758482, -27.4909036], [-58.9759253, -27.4898058], [-58.9757401, -27.4893711], [-58.9741521, -27.4881318], [-58.9739189, -27.4876542], [-58.9739324, -27.4871277], [-58.9744796, -27.484924], [-58.9744998, -27.4841343], [-58.9744083, -27.4838731], [-58.9737845, -27.4833158], [-58.9730534, -27.4831114], [-58.9723659, -27.4831255], [-58.9720668, -27.483307], [-58.9720121, -27.4835274], [-58.972099, -27.4839641], [-58.9725767, -27.4844805], [-58.9729013, -27.4852194], [-58.9728856, -27.4858336], [-58.9722102, -27.4872945], [-58.9721877, -27.4881719], [-58.9727981, -27.4892557], [-58.9726797, -27.4900475], [-58.972376, -27.4904045], [-58.9706928, -27.490965], [-58.9701905, -27.4914138], [-58.9695698, -27.4926543], [-58.9689648, -27.4932806], [-58.9686701, -27.4932866], [-58.9684782, -27.4931151], [-58.9686625, -27.4916643], [-58.9686061, -27.4881135], [-58.9689232, -27.48723], [-58.9688865, -27.4867484], [-58.9686465, -27.4865341], [-58.9679088, -27.486593], [-58.9671051, -27.487311], [-58.9669477, -27.4877089], [-58.966914, -27.4890251], [-58.9666224, -27.4908289], [-58.9664627, -27.4913145], [-58.9660107, -27.4917184], [-58.9652706, -27.4918651], [-58.9633543, -27.4919481], [-58.9618353, -27.4918475], [-58.9614401, -27.4919433], [-58.9608876, -27.4924369], [-58.9601978, -27.4925387], [-58.9597157, -27.4921978], [-58.9587448, -27.4917791], [-58.9574034, -27.490491], [-58.9568163, -27.4904152], [-58.9565172, -27.4905968], [-58.9564535, -27.4911681], [-58.9566844, -27.4917335], [-58.9580738, -27.4930645], [-58.9590223, -27.4943606], [-58.9594295, -27.4957117], [-58.9596649, -27.4961015], [-58.9605287, -27.4968732], [-58.9608444, -27.497963], [-58.9617036, -27.4989102], [-58.9621221, -27.4998225], [-58.9628463, -27.50029], [-58.9629881, -27.5005064], [-58.9629244, -27.5010778], [-58.9619242, -27.5017998], [-58.9611026, -27.5032198], [-58.960502, -27.5036706], [-58.9599127, -27.5036826], [-58.9594261, -27.5035171], [-58.9584596, -27.502923], [-58.9577878, -27.5023228], [-58.9575403, -27.5004861], [-58.9570605, -27.5000574], [-58.9561855, -27.4997245], [-58.9557581, -27.4991631], [-58.9553007, -27.4978569], [-58.9554326, -27.4965387], [-58.9547262, -27.4953692], [-58.954002, -27.4949016], [-58.9524897, -27.4945379], [-58.9515779, -27.4937233], [-58.950607, -27.4933046], [-58.9499854, -27.4926596], [-58.9481453, -27.4897592]], [[-58.9954755, -27.4796279], [-58.995615, -27.479932], [-58.9960948, -27.4803607], [-58.9966841, -27.4803487], [-58.9976318, -27.4797593], [-58.9981844, -27.4792656], [-58.9982436, -27.4788698], [-58.9980539, -27.4786105], [-58.997661, -27.4786185], [-58.9971654, -27.4788041], [-58.9959868, -27.4788281], [-58.9954867, -27.4791892], [-58.9954755, -27.4796279]], [[-58.985246, -27.4823363], [-58.9840974, -27.4831052], [-58.9838417, -27.483505], [-58.983769, -27.4844274], [-58.984, -27.4849927], [-58.9844799, -27.4854214], [-58.9858459, -27.4857444], [-58.9863872, -27.4856894], [-58.9866864, -27.4855079], [-58.9868963, -27.4849774], [-58.986939, -27.4833103], [-58.98666, -27.482702], [-58.9862761, -27.4823591], [-58.9859837, -27.4822773], [-58.985246, -27.4823363]], [[-58.9825466, -27.4784887], [-58.982926, -27.4790071], [-58.9835109, -27.4791706], [-58.983954, -27.4791177], [-58.9857008, -27.4779858], [-58.985817, -27.4772818], [-58.9855793, -27.4769797], [-58.9848506, -27.4766876], [-58.9837679, -27.4767974], [-58.9833706, -27.4769809], [-58.982818, -27.4774746], [-58.9825601, -27.4779622], [-58.9825466, -27.4784887]], [[-58.9617121, -27.4870703], [-58.961269, -27.4871232], [-58.9606707, -27.4874863], [-58.9596136, -27.4885164], [-58.9595521, -27.489], [-58.9598266, -27.4897837], [-58.9597862, -27.4913632], [-58.9601243, -27.4915755], [-58.9607136, -27.4915635], [-58.9613576, -27.4913311], [-58.9617595, -27.4909721], [-58.9619147, -27.4906619], [-58.9621358, -27.4896927], [-58.9621762, -27.4881133], [-58.9620982, -27.4873256], [-58.9617121, -27.4870703]], [[-58.9692844, -27.4673584], [-58.9686471, -27.4673275], [-58.9680466, -27.4677783], [-58.9676312, -27.4686638], [-58.9674971, -27.4700697], [-58.9671935, -27.4704267], [-58.9663005, -27.4707958], [-58.9658987, -27.4711548], [-58.9658417, -27.4714629], [-58.9660269, -27.4718976], [-58.9663673, -27.4720222], [-58.9671553, -27.4719184], [-58.9689479, -27.4709171], [-58.9694, -27.4705132], [-58.9697629, -27.4697604], [-58.9698333, -27.4689258], [-58.9697095, -27.4680074], [-58.9695243, -27.4675727], [-58.9692844, -27.4673584]], [[-58.9553703, -27.4797891], [-58.9546348, -27.4797603], [-58.9537328, -27.4804803], [-58.9535297, -27.4807475], [-58.9535139, -27.4813618], [-58.9537539, -27.4815761], [-58.9546378, -27.4815581], [-58.9554393, -27.4809278], [-58.95556, -27.4800483], [-58.9553703, -27.4797891]]]}}, {"type": "Feature", "properties": {"id": 9, "rango": "49 a 50 m", "cota_mop": "49 a 50 m", "altura_hidrometro_barranqueras": "7,2 a 8,2 m", "color": "#90DC90", "area_ha": 4.19}, "geometry": {"type": "Polygon", "coordinates": [[[-58.9961846, -27.4308077], [-58.9966712, -27.4309732], [-58.9974368, -27.4317469], [-58.9971856, -27.4319713], [-58.9961945, -27.4323423], [-58.9957401, -27.4328339], [-58.9956742, -27.433493], [-58.9950436, -27.433199], [-58.994518, -27.4326396], [-58.9951823, -27.4316175], [-58.995246, -27.4310462], [-58.9955451, -27.4308646], [-58.9961846, -27.4308077]]]}}, {"type": "Feature", "properties": {"id": 10, "rango": "49 a 50 m", "cota_mop": "49 a 50 m", "altura_hidrometro_barranqueras": "7,2 a 8,2 m", "color": "#90DC90", "area_ha": 6.98}, "geometry": {"type": "Polygon", "coordinates": [[[-58.9912558, -27.43161], [-58.9915392, -27.4320427], [-58.9917087, -27.4330917], [-58.9918962, -27.4334386], [-58.992472, -27.4339531], [-58.9923648, -27.4343061], [-58.9924473, -27.4349183], [-58.9916023, -27.4353302], [-58.9907206, -27.4352605], [-58.9902843, -27.4350502], [-58.9898591, -27.4344011], [-58.9898816, -27.4335236], [-58.9901507, -27.4325973], [-58.9912558, -27.43161]]]}}, {"type": "Feature", "properties": {"id": 11, "rango": "49 a 50 m", "cota_mop": "49 a 50 m", "altura_hidrometro_barranqueras": "7,2 a 8,2 m", "color": "#90DC90", "area_ha": 3.31}, "geometry": {"type": "Polygon", "coordinates": [[[-58.9531149, -27.4624265], [-58.9531741, -27.4620306], [-58.9534253, -27.4618062], [-58.9543137, -27.4616127], [-58.9555906, -27.4615866], [-58.9560772, -27.4617521], [-58.9562669, -27.4620113], [-58.9560592, -27.4624541], [-58.9542823, -27.4628411], [-58.9535468, -27.4628123], [-58.9531149, -27.4624265]]]}}, {"type": "Feature", "properties": {"id": 12, "rango": "49 a 50 m", "cota_mop": "49 a 50 m", "altura_hidrometro_barranqueras": "7,2 a 8,2 m", "color": "#90DC90", "area_ha": 130.53}, "geometry": {"type": "Polygon", "coordinates": [[[-58.979904, -27.4378932], [-58.9804453, -27.4378383], [-58.9812131, -27.4385242], [-58.9815925, -27.4390427], [-58.9820244, -27.4394285], [-58.9823648, -27.4395531], [-58.9830546, -27.4394513], [-58.983356, -27.439182], [-58.9839265, -27.4379864], [-58.9843785, -27.4375825], [-58.9857379, -27.4381687], [-58.9865559, -27.4388098], [-58.9867389, -27.4393322], [-58.987077, -27.4395446], [-58.9872645, -27.4398915], [-58.9868694, -27.4399873], [-58.98575, -27.4396155], [-58.9847198, -27.4395927], [-58.984117, -27.4401312], [-58.984099, -27.4408332], [-58.984291, -27.4410047], [-58.9851202, -27.441207], [-58.9856893, -27.4419847], [-58.9868845, -27.4432319], [-58.9876178, -27.4433485], [-58.9888579, -27.4428408], [-58.9893969, -27.4428737], [-58.9898311, -27.4431718], [-58.9901145, -27.4436045], [-58.9907863, -27.4442047], [-58.9919102, -27.444401], [-58.9929794, -27.4448177], [-58.9935207, -27.4447628], [-58.993918, -27.4445792], [-58.9942697, -27.4442651], [-58.9945845, -27.4434694], [-58.9952923, -27.4426656], [-58.9977926, -27.4408605], [-58.9985806, -27.4407567], [-58.9990605, -27.4411854], [-58.9991865, -27.442016], [-58.9989263, -27.4425914], [-58.9983738, -27.443085], [-58.9972342, -27.443503], [-58.9968825, -27.4438171], [-58.9963188, -27.4447495], [-58.9964013, -27.4453617], [-58.9962963, -27.4456269], [-58.9957438, -27.4461206], [-58.9957281, -27.4467348], [-58.9965349, -27.4478146], [-58.9966106, -27.4486901], [-58.9961975, -27.4494878], [-58.9951427, -27.4504302], [-58.9950588, -27.4517913], [-58.9948556, -27.4520585], [-58.9941636, -27.4522481], [-58.9936313, -27.451952], [-58.9938066, -27.4508521], [-58.9935712, -27.4504623], [-58.9920612, -27.4500108], [-58.9906538, -27.4493818], [-58.9895757, -27.4493161], [-58.9891303, -27.4494567], [-58.9883446, -27.4494728], [-58.9873189, -27.4492745], [-58.9868758, -27.4493274], [-58.9863, -27.4488129], [-58.986165, -27.4483333], [-58.9855457, -27.4476005], [-58.9853649, -27.4469903], [-58.9843348, -27.4469675], [-58.9827947, -27.4457711], [-58.9824176, -27.4451649], [-58.9814511, -27.4445707], [-58.9801855, -27.4441581], [-58.9799958, -27.4438988], [-58.9796366, -27.4425906], [-58.9791657, -27.4418109], [-58.9785921, -27.4412088], [-58.9779136, -27.4408718], [-58.9779773, -27.4403004], [-58.9782876, -27.4396802], [-58.978694, -27.4391457], [-58.9793447, -27.4386501], [-58.979904, -27.4378932]]]}}, {"type": "Feature", "properties": {"id": 13, "rango": "49 a 50 m", "cota_mop": "49 a 50 m", "altura_hidrometro_barranqueras": "7,2 a 8,2 m", "color": "#90DC90", "area_ha": 7.19}, "geometry": {"type": "Polygon", "coordinates": [[[-58.9636425, -27.4519066], [-58.9643345, -27.4517171], [-58.9654472, -27.4523521], [-58.9669617, -27.4526281], [-58.9674963, -27.4528365], [-58.9678277, -27.4533121], [-58.9673711, -27.4538914], [-58.966871, -27.4542525], [-58.9659324, -27.4544909], [-58.9651489, -27.4544192], [-58.9647304, -27.4535069], [-58.9635263, -27.4526106], [-58.9636425, -27.4519066]]]}}, {"type": "Feature", "properties": {"id": 14, "rango": "49 a 50 m", "cota_mop": "49 a 50 m", "altura_hidrometro_barranqueras": "7,2 a 8,2 m", "color": "#90DC90", "area_ha": 13.8}, "geometry": {"type": "Polygon", "coordinates": [[[-58.9363367, -27.4755296], [-58.9370243, -27.4755156], [-58.9381737, -27.4766322], [-58.9386468, -27.4773242], [-58.9388643, -27.478416], [-58.9391432, -27.4790242], [-58.9402469, -27.4800102], [-58.9410215, -27.4804329], [-58.9412591, -27.480735], [-58.9412502, -27.481086], [-58.941047, -27.4813532], [-58.940211, -27.4814142], [-58.9396262, -27.4812507], [-58.9378807, -27.4804093], [-58.9370784, -27.4791541], [-58.9368609, -27.4780622], [-58.9360039, -27.4770273], [-58.9358667, -27.4766355], [-58.9360353, -27.4757989], [-58.9363367, -27.4755296]]]}}, {"type": "Feature", "properties": {"id": 15, "rango": "49 a 50 m", "cota_mop": "49 a 50 m", "altura_hidrometro_barranqueras": "7,2 a 8,2 m", "color": "#90DC90", "area_ha": 5.31}, "geometry": {"type": "Polygon", "coordinates": [[[-58.942809, -27.4681182], [-58.9434486, -27.4680613], [-58.9439307, -27.4684023], [-58.9443423, -27.4695779], [-58.9447742, -27.4699637], [-58.9453568, -27.4702149], [-58.9454985, -27.4704313], [-58.9455375, -27.4708251], [-58.9452819, -27.471225], [-58.9444437, -27.4713737], [-58.9435207, -27.4709978], [-58.9433332, -27.4706509], [-58.9431202, -27.4693836], [-58.9426493, -27.4686039], [-58.942809, -27.4681182]]]}}, {"type": "Feature", "properties": {"id": 16, "rango": "49 a 50 m", "cota_mop": "49 a 50 m", "altura_hidrometro_barranqueras": "7,2 a 8,2 m", "color": "#90DC90", "area_ha": 2.74}, "geometry": {"type": "Polygon", "coordinates": [[[-58.9830638, -27.429497], [-58.9834545, -27.4295768], [-58.9838729, -27.4304891], [-58.9840926, -27.4314932], [-58.9840836, -27.4318441], [-58.9838302, -27.4321563], [-58.9834373, -27.4321643], [-58.9831974, -27.4319499], [-58.9830669, -27.4312949], [-58.9826485, -27.4303825], [-58.9827145, -27.4297234], [-58.9830638, -27.429497]]]}}, {"type": "Feature", "properties": {"id": 17, "rango": "49 a 50 m", "cota_mop": "49 a 50 m", "altura_hidrometro_barranqueras": "7,2 a 8,2 m", "color": "#90DC90", "area_ha": 27.19}, "geometry": {"type": "Polygon", "coordinates": [[[-58.9993335, -27.4132471], [-59.0001215, -27.4131433], [-59.0007063, -27.4133067], [-59.0029294, -27.4146645], [-59.0037474, -27.4153056], [-59.0044605, -27.4162119], [-59.0046847, -27.4170405], [-59.0051099, -27.4176896], [-59.0053798, -27.4186488], [-59.0060494, -27.4193367], [-59.0062234, -27.4202102], [-59.0061619, -27.4206938], [-59.0033616, -27.4207948], [-59.0030212, -27.4206702], [-59.0020614, -27.4198128], [-59.0017457, -27.418723], [-59.0010304, -27.4179044], [-59.0009937, -27.4174228], [-59.0011533, -27.4169372], [-59.0010798, -27.415974], [-59.0001291, -27.4147656], [-58.9998591, -27.4138064], [-58.9991828, -27.4133817], [-58.9993335, -27.4132471]]]}}, {"type": "Feature", "properties": {"id": 18, "rango": "49 a 50 m", "cota_mop": "49 a 50 m", "altura_hidrometro_barranqueras": "7,2 a 8,2 m", "color": "#90DC90", "area_ha": 122.58}, "geometry": {"type": "Polygon", "coordinates": [[[-58.9664911, -27.4422452], [-58.9674253, -27.4421822], [-58.9684465, -27.442556], [-58.9687321, -27.442901], [-58.9684173, -27.4436968], [-58.96734, -27.4455166], [-58.967427, -27.4459534], [-58.9677629, -27.4462535], [-58.9685006, -27.4461945], [-58.9689092, -27.4455723], [-58.969512, -27.4450338], [-58.9701058, -27.4448462], [-58.973347, -27.4447801], [-58.9748795, -27.4443541], [-58.975414, -27.4445624], [-58.975702, -27.4448197], [-58.9757365, -27.445389], [-58.9754786, -27.4458766], [-58.9754539, -27.4468419], [-58.9752507, -27.4471091], [-58.9747094, -27.447164], [-58.974369, -27.4470394], [-58.9740811, -27.4467822], [-58.9738959, -27.4463475], [-58.97356, -27.4460474], [-58.9730209, -27.4460145], [-58.9725733, -27.4462429], [-58.9724594, -27.4468592], [-58.9731222, -27.4478103], [-58.9741299, -27.4487106], [-58.9755785, -27.4496458], [-58.975718, -27.4499499], [-58.9756183, -27.4519252], [-58.9770624, -27.4530358], [-58.9777957, -27.4531524], [-58.9785904, -27.4527853], [-58.9795538, -27.4515817], [-58.9795395, -27.4502226], [-58.9800831, -27.45008], [-58.9804692, -27.4503352], [-58.9806822, -27.4516025], [-58.9817859, -27.4525885], [-58.9823025, -27.4534988], [-58.9825245, -27.4544152], [-58.9828581, -27.454803], [-58.9836304, -27.4553135], [-58.9839618, -27.455789], [-58.9840008, -27.4561829], [-58.9836425, -27.4567603], [-58.982841, -27.4573905], [-58.9823118, -27.4588923], [-58.9820561, -27.4592922], [-58.9814533, -27.4598307], [-58.9808093, -27.4600631], [-58.9799531, -27.4609137], [-58.9796082, -27.4609646], [-58.9794163, -27.4607931], [-58.9794253, -27.4604421], [-58.9797836, -27.4598648], [-58.9797993, -27.4592505], [-58.9793329, -27.4582953], [-58.9799972, -27.4572732], [-58.9800174, -27.4564835], [-58.9792039, -27.4556669], [-58.9781369, -27.4551625], [-58.977253, -27.4551806], [-58.9766089, -27.455413], [-58.9763578, -27.4556374], [-58.9750922, -27.4552247], [-58.9748522, -27.4550103], [-58.9750644, -27.4543921], [-58.9750801, -27.4537779], [-58.9749429, -27.453386], [-58.9742733, -27.4526981], [-58.9734006, -27.4522774], [-58.9727633, -27.4522466], [-58.9722175, -27.452477], [-58.9720076, -27.4530075], [-58.9719349, -27.4539298], [-58.9707338, -27.4548313], [-58.9701445, -27.4548434], [-58.9697606, -27.4545004], [-58.9694794, -27.4539799], [-58.9685654, -27.4532532], [-58.9686861, -27.4523737], [-58.9685668, -27.4512798], [-58.9686718, -27.4510146], [-58.9698729, -27.4501131], [-58.9700325, -27.4496274], [-58.9699545, -27.4488397], [-58.9694289, -27.4482804], [-58.9689446, -27.4480272], [-58.9680606, -27.4480452], [-58.9676632, -27.4482288], [-58.9666586, -27.4491263], [-58.9658114, -27.4496259], [-58.9650189, -27.4499052], [-58.964683, -27.4496051], [-58.9644678, -27.4484256], [-58.9641409, -27.4477745], [-58.9641063, -27.4472051], [-58.9647226, -27.4461401], [-58.9653778, -27.445469], [-58.9653936, -27.4448548], [-58.9651604, -27.4443772], [-58.9652218, -27.4438936], [-58.9659206, -27.4434408], [-58.9662399, -27.4424696], [-58.9664911, -27.4422452]]]}}, {"type": "Feature", "properties": {"id": 19, "rango": "49 a 50 m", "cota_mop": "49 a 50 m", "altura_hidrometro_barranqueras": "7,2 a 8,2 m", "color": "#90DC90", "area_ha": 12.14}, "geometry": {"type": "Polygon", "coordinates": [[[-58.9194053, -27.4831107], [-58.9203148, -27.484013], [-58.9210692, -27.4852254], [-58.9219509, -27.4852951], [-58.9222388, -27.4855523], [-58.9227097, -27.486332], [-58.9228357, -27.4871626], [-58.9219562, -27.4870052], [-58.9216683, -27.4867479], [-58.9212252, -27.4868008], [-58.9203802, -27.4872127], [-58.9195945, -27.4872288], [-58.9187675, -27.4869387], [-58.9183356, -27.4865529], [-58.9183415, -27.4844041], [-58.9186016, -27.4838287], [-58.9194053, -27.4831107]]]}}, {"type": "Feature", "properties": {"id": 20, "rango": "49 a 50 m", "cota_mop": "49 a 50 m", "altura_hidrometro_barranqueras": "7,2 a 8,2 m", "color": "#90DC90", "area_ha": 12.74}, "geometry": {"type": "Polygon", "coordinates": [[[-58.9704218, -27.4363328], [-58.9713125, -27.4360515], [-58.9722444, -27.4360763], [-58.972683, -27.4361989], [-58.9730189, -27.436499], [-58.9731082, -27.436848], [-58.9730175, -27.4384723], [-58.9733332, -27.4395621], [-58.9731758, -27.43996], [-58.9728744, -27.4402292], [-58.9723788, -27.4404148], [-58.9717918, -27.4403391], [-58.9713119, -27.4399103], [-58.9704136, -27.4385693], [-58.9693534, -27.4378017], [-58.9693144, -27.4374078], [-58.9694696, -27.4370977], [-58.9704218, -27.4363328]]]}}, {"type": "Feature", "properties": {"id": 21, "rango": "49 a 50 m", "cota_mop": "49 a 50 m", "altura_hidrometro_barranqueras": "7,2 a 8,2 m", "color": "#90DC90", "area_ha": 113.71}, "geometry": {"type": "Polygon", "coordinates": [[[-58.990779, -27.4176314], [-58.9912243, -27.4174907], [-58.9921061, -27.4175604], [-58.9926819, -27.4180749], [-58.9936551, -27.4184058], [-58.9941327, -27.4189223], [-58.9945713, -27.4190449], [-58.9971273, -27.418905], [-58.9977121, -27.4190684], [-58.9991374, -27.4189955], [-58.9998616, -27.419463], [-59.0000948, -27.4199406], [-59.0004352, -27.4200652], [-59.0011228, -27.4200512], [-59.0014129, -27.4202207], [-59.0013358, -27.4213185], [-59.0016717, -27.4216186], [-59.002309, -27.4216495], [-59.0032454, -27.4214988], [-59.0047532, -27.422038], [-59.0053905, -27.4220689], [-59.0061964, -27.4212631], [-59.0076495, -27.4220228], [-59.0081773, -27.4224943], [-59.008454, -27.4231903], [-59.0090846, -27.4234844], [-59.009368, -27.4239171], [-59.0096425, -27.4247008], [-59.0099447, -27.4263171], [-59.0107358, -27.4280111], [-59.0112569, -27.4287459], [-59.0113919, -27.4292255], [-59.0112721, -27.4319906], [-59.0114895, -27.4330824], [-59.0119492, -27.4343008], [-59.0119792, -27.4350457], [-59.0117281, -27.43527], [-59.0116164, -27.4357985], [-59.0119433, -27.4364496], [-59.0119711, -27.4372822], [-59.011567, -27.437729], [-59.0113706, -27.437733], [-59.010653, -27.4370022], [-59.0097803, -27.4365815], [-59.0099691, -27.4349552], [-59.0096099, -27.433647], [-59.0091278, -27.433306], [-59.0081367, -27.4336771], [-59.0079447, -27.4335056], [-59.0080564, -27.4329771], [-59.008408, -27.432663], [-59.008552, -27.4327916], [-59.0089448, -27.4327835], [-59.009244, -27.432602], [-59.0094486, -27.4303615], [-59.0092701, -27.4296635], [-59.008884, -27.4294083], [-59.0079977, -27.4295141], [-59.0074017, -27.4297894], [-59.0068994, -27.4302381], [-59.006637, -27.4309012], [-59.0063903, -27.4309501], [-59.0061482, -27.4308235], [-59.0062554, -27.4304705], [-59.0067074, -27.4300666], [-59.0068828, -27.4289668], [-59.007826, -27.4285529], [-59.0081776, -27.4282387], [-59.0083875, -27.4277083], [-59.0083028, -27.4271838], [-59.0080606, -27.4270572], [-59.0074713, -27.4270692], [-59.0063294, -27.4275749], [-59.0056419, -27.4275889], [-59.0053562, -27.4272439], [-59.0051118, -27.4272051], [-59.004758, -27.427607], [-59.0046463, -27.4281355], [-59.0042946, -27.4284496], [-59.0031138, -27.4285614], [-59.0014966, -27.4284629], [-59.0010467, -27.428779], [-59.0006381, -27.4294013], [-59.000147, -27.4294113], [-58.9993425, -27.4282438], [-58.9983626, -27.4281761], [-58.9979764, -27.4279209], [-58.9979711, -27.4262108], [-58.998076, -27.4259455], [-58.9985694, -27.4258478], [-58.9991932, -27.4264051], [-58.9994879, -27.4263991], [-58.9998072, -27.4254278], [-59.0012482, -27.4247407], [-59.002351, -27.4238411], [-59.0024125, -27.4233575], [-59.0021313, -27.422837], [-59.0014115, -27.422194], [-59.0005298, -27.4221243], [-58.9991458, -27.4225034], [-58.9986547, -27.4225134], [-58.9974828, -27.4222742], [-58.9969984, -27.422021], [-58.9962307, -27.4213351], [-58.9955956, -27.4212165], [-58.9952642, -27.4207409], [-58.9947821, -27.4203999], [-58.994195, -27.4203242], [-58.9939484, -27.4203731], [-58.9934963, -27.420777], [-58.9933411, -27.4210871], [-58.9932137, -27.4222298], [-58.9927114, -27.4226786], [-58.9920494, -27.423613], [-58.9916588, -27.4235333], [-58.9914188, -27.4233189], [-58.9913843, -27.4227495], [-58.9920553, -27.4214642], [-58.9919728, -27.420852], [-58.9917306, -27.4207254], [-58.9902596, -27.4206677], [-58.9900676, -27.4204962], [-58.9898869, -27.419886], [-58.9906928, -27.4190802], [-58.9908, -27.4187272], [-58.990779, -27.4176314]], [[-59.0057174, -27.42272], [-59.0054227, -27.422726], [-59.0052218, -27.4229055], [-59.0054371, -27.4240851], [-59.0054169, -27.4248748], [-59.0048988, -27.4259378], [-59.004344, -27.4265192], [-59.0043351, -27.4268701], [-59.0047189, -27.4272131], [-59.0053585, -27.4271562], [-59.0060093, -27.4266606], [-59.0063788, -27.4256444], [-59.006582, -27.4253772], [-59.0072808, -27.4249244], [-59.0075911, -27.4243042], [-59.0075544, -27.4238226], [-59.0072664, -27.4235653], [-59.0063435, -27.4231895], [-59.0057174, -27.42272]], [[-59.0022236, -27.4249838], [-59.0020227, -27.4251633], [-59.0019043, -27.4259551], [-59.0021855, -27.4264755], [-59.00296, -27.4268982], [-59.0036978, -27.4268393], [-59.0038485, -27.4267047], [-59.0038117, -27.4262231], [-59.003391, -27.4253985], [-59.002765, -27.4249289], [-59.0022236, -27.4249838]]]}}, {"type": "Feature", "properties": {"id": 22, "rango": "49 a 50 m", "cota_mop": "49 a 50 m", "altura_hidrometro_barranqueras": "7,2 a 8,2 m", "color": "#90DC90", "area_ha": 8.92}, "geometry": {"type": "Polygon", "coordinates": [[[-58.9943221, -27.4134371], [-58.9952039, -27.4135068], [-58.9959349, -27.4137111], [-58.9959237, -27.4141498], [-58.9961479, -27.4149784], [-58.9966277, -27.4154071], [-58.9978431, -27.4158647], [-58.9982728, -27.4163383], [-58.9985037, -27.4169036], [-58.9984423, -27.4173872], [-58.9982916, -27.4175218], [-58.9973596, -27.417497], [-58.9955159, -27.4166577], [-58.995006, -27.4154841], [-58.9942862, -27.414841], [-58.9941992, -27.4144043], [-58.9943221, -27.4134371]]]}}, {"type": "Feature", "properties": {"id": 23, "rango": "49 a 50 m", "cota_mop": "49 a 50 m", "altura_hidrometro_barranqueras": "7,2 a 8,2 m", "color": "#90DC90", "area_ha": 18.72}, "geometry": {"type": "Polygon", "coordinates": [[[-58.9562758, -27.4463126], [-58.9570136, -27.4462537], [-58.9574455, -27.4466395], [-58.9579164, -27.4474192], [-58.9590725, -27.4482726], [-58.9594497, -27.4488788], [-58.9596169, -27.4500155], [-58.9593155, -27.4502848], [-58.9593456, -27.4510296], [-58.9597775, -27.4514155], [-58.961331, -27.4520854], [-58.9616624, -27.452561], [-58.9607784, -27.452579], [-58.9600864, -27.4527685], [-58.9589813, -27.4537558], [-58.9584857, -27.4539413], [-58.9578507, -27.4538228], [-58.9571789, -27.4532226], [-58.9571489, -27.4524777], [-58.9581535, -27.4515802], [-58.9583221, -27.4507436], [-58.9580889, -27.450266], [-58.9567911, -27.4491962], [-58.9564664, -27.4484574], [-58.9555546, -27.4476429], [-58.9556228, -27.446896], [-58.9562758, -27.4463126]]]}}, {"type": "Feature", "properties": {"id": 24, "rango": "49 a 50 m", "cota_mop": "49 a 50 m", "altura_hidrometro_barranqueras": "7,2 a 8,2 m", "color": "#90DC90", "area_ha": 3.6}, "geometry": {"type": "Polygon", "coordinates": [[[-58.9601302, -27.4433836], [-58.9603199, -27.4436429], [-58.9603064, -27.4441693], [-58.9598911, -27.4450548], [-58.9592883, -27.4455933], [-58.9588452, -27.4456462], [-58.9585048, -27.4455216], [-58.9582214, -27.4450889], [-58.9582349, -27.4445624], [-58.9584403, -27.4442074], [-58.9593422, -27.4434874], [-58.9596893, -27.4433488], [-58.9601302, -27.4433836]]]}}, {"type": "Feature", "properties": {"id": 25, "rango": "49 a 50 m", "cota_mop": "49 a 50 m", "altura_hidrometro_barranqueras": "7,2 a 8,2 m", "color": "#90DC90", "area_ha": 2.86}, "geometry": {"type": "Polygon", "coordinates": [[[-58.926616, -27.4717816], [-58.9268671, -27.4715572], [-58.9276506, -27.4716289], [-58.929597, -27.4722907], [-58.9285466, -27.4730576], [-58.9281035, -27.4731105], [-58.927329, -27.4726879], [-58.9266572, -27.4720877], [-58.926616, -27.4717816]]]}}, {"type": "Feature", "properties": {"id": 26, "rango": "49 a 50 m", "cota_mop": "49 a 50 m", "altura_hidrometro_barranqueras": "7,2 a 8,2 m", "color": "#90DC90", "area_ha": 8.27}, "geometry": {"type": "Polygon", "coordinates": [[[-58.9781033, -27.4257833], [-58.9786311, -27.4262549], [-58.9788118, -27.4268651], [-58.9787436, -27.427612], [-58.9785337, -27.4281425], [-58.9777233, -27.4291237], [-58.9775457, -27.4303113], [-58.9770523, -27.4304091], [-58.9769084, -27.4302805], [-58.9767869, -27.4292744], [-58.9759231, -27.4285027], [-58.9758428, -27.4278028], [-58.975998, -27.4274926], [-58.9765941, -27.4272174], [-58.9769457, -27.4269032], [-58.9773108, -27.4260626], [-58.9775619, -27.4258382], [-58.9781033, -27.4257833]]]}}, {"type": "Feature", "properties": {"id": 27, "rango": "49 a 50 m", "cota_mop": "49 a 50 m", "altura_hidrometro_barranqueras": "7,2 a 8,2 m", "color": "#90DC90", "area_ha": 5.22}, "geometry": {"type": "Polygon", "coordinates": [[[-58.9436646, -27.4557788], [-58.9441167, -27.4553749], [-58.9448043, -27.4553608], [-58.9458779, -27.455602], [-58.9482351, -27.4555539], [-58.9487675, -27.45585], [-58.9487608, -27.4561132], [-58.9485553, -27.4564682], [-58.9476167, -27.4567066], [-58.9471256, -27.4567167], [-58.9456133, -27.4563529], [-58.9440418, -27.456385], [-58.9437036, -27.4561726], [-58.9436646, -27.4557788]]]}}, {"type": "Feature", "properties": {"id": 28, "rango": "49 a 50 m", "cota_mop": "49 a 50 m", "altura_hidrometro_barranqueras": "7,2 a 8,2 m", "color": "#90DC90", "area_ha": 5.98}, "geometry": {"type": "Polygon", "coordinates": [[[-58.9766381, -27.4235769], [-58.9767956, -27.423179], [-58.9771974, -27.42282], [-58.9778437, -27.4224998], [-58.9790013, -27.4213799], [-58.979691, -27.4212782], [-58.9801251, -27.4215762], [-58.9801597, -27.4221456], [-58.9799018, -27.4226332], [-58.9782419, -27.4242019], [-58.9777965, -27.4243425], [-58.9766381, -27.4235769]]]}}, {"type": "Feature", "properties": {"id": 29, "rango": "49 a 50 m", "cota_mop": "49 a 50 m", "altura_hidrometro_barranqueras": "7,2 a 8,2 m", "color": "#90DC90", "area_ha": 3.14}, "geometry": {"type": "Polygon", "coordinates": [[[-58.9721097, -27.4259934], [-58.9723999, -27.4261629], [-58.9729712, -27.4268528], [-58.9731519, -27.4274631], [-58.9725994, -27.4279567], [-58.9720558, -27.4280994], [-58.9714185, -27.4280685], [-58.9711786, -27.4278542], [-58.9711418, -27.4273726], [-58.9716599, -27.4263096], [-58.9721097, -27.4259934]]]}}, {"type": "Feature", "properties": {"id": 30, "rango": "49 a 50 m", "cota_mop": "49 a 50 m", "altura_hidrometro_barranqueras": "7,2 a 8,2 m", "color": "#90DC90", "area_ha": 3.95}, "geometry": {"type": "Polygon", "coordinates": [[[-58.9161563, -27.4758101], [-58.9166909, -27.4760185], [-58.9182677, -27.4776965], [-58.9183524, -27.4782209], [-58.9181973, -27.478531], [-58.9173748, -27.4780655], [-58.9160109, -27.4776548], [-58.9156338, -27.4770486], [-58.9157957, -27.4764753], [-58.9161496, -27.4760734], [-58.9161563, -27.4758101]]]}}, {"type": "Feature", "properties": {"id": 31, "rango": "49 a 50 m", "cota_mop": "49 a 50 m", "altura_hidrometro_barranqueras": "7,2 a 8,2 m", "color": "#90DC90", "area_ha": 6.75}, "geometry": {"type": "Polygon", "coordinates": [[[-58.9419138, -27.4532273], [-58.9423959, -27.4535683], [-58.9425332, -27.4539601], [-58.9425587, -27.4548805], [-58.9423443, -27.4555865], [-58.9419904, -27.4559884], [-58.9415931, -27.4561719], [-58.9406611, -27.456147], [-58.9398889, -27.4556366], [-58.9397494, -27.4553325], [-58.9398131, -27.4547611], [-58.9410254, -27.4534209], [-58.9414227, -27.4532374], [-58.9419138, -27.4532273]]]}}, {"type": "Feature", "properties": {"id": 32, "rango": "49 a 50 m", "cota_mop": "49 a 50 m", "altura_hidrometro_barranqueras": "7,2 a 8,2 m", "color": "#90DC90", "area_ha": 11.7}, "geometry": {"type": "Polygon", "coordinates": [[[-58.9456369, -27.4477577], [-58.9460777, -27.4477925], [-58.9463177, -27.4480069], [-58.9468365, -27.4488295], [-58.9480864, -27.4498563], [-58.9482259, -27.4501604], [-58.9482626, -27.4506421], [-58.948103, -27.4511277], [-58.9474343, -27.4523253], [-58.9469274, -27.4529495], [-58.9462399, -27.4529636], [-58.946096, -27.452835], [-58.9458238, -27.4519635], [-58.9451407, -27.4518021], [-58.9453026, -27.4512287], [-58.9452283, -27.4483799], [-58.9453879, -27.4478943], [-58.9456369, -27.4477577]]]}}, {"type": "Feature", "properties": {"id": 33, "rango": "49 a 50 m", "cota_mop": "49 a 50 m", "altura_hidrometro_barranqueras": "7,2 a 8,2 m", "color": "#90DC90", "area_ha": 10.57}, "geometry": {"type": "Polygon", "coordinates": [[[-58.9550481, -27.4386638], [-58.9556877, -27.4386069], [-58.956076, -27.4387744], [-58.9565079, -27.4391602], [-58.9568348, -27.4398113], [-58.9573147, -27.44024], [-58.9580937, -27.4404872], [-58.9584799, -27.4407424], [-58.9585579, -27.4415302], [-58.9583, -27.4420178], [-58.9578981, -27.4423768], [-58.9573523, -27.4426072], [-58.9565688, -27.4425355], [-58.955127, -27.4413371], [-58.9547543, -27.4405554], [-58.9546305, -27.4396371], [-58.954797, -27.4388882], [-58.9550481, -27.4386638]]]}}, {"type": "Feature", "properties": {"id": 34, "rango": "49 a 50 m", "cota_mop": "49 a 50 m", "altura_hidrometro_barranqueras": "7,2 a 8,2 m", "color": "#90DC90", "area_ha": 10.45}, "geometry": {"type": "Polygon", "coordinates": [[[-58.9729535, -27.4179515], [-58.9733442, -27.4180313], [-58.9735339, -27.4182905], [-58.9735639, -27.4190353], [-58.9731441, -27.4200963], [-58.9723404, -27.4208144], [-58.9721852, -27.4211245], [-58.9720286, -27.4234079], [-58.9722394, -27.424763], [-58.9721824, -27.4250711], [-58.9719312, -27.4252955], [-58.9716411, -27.425126], [-58.9714716, -27.424077], [-58.9708814, -27.4222035], [-58.9708536, -27.4213709], [-58.9710635, -27.4208404], [-58.9715762, -27.4180674], [-58.9729535, -27.4179515]]]}}, {"type": "Feature", "properties": {"id": 35, "rango": "49 a 50 m", "cota_mop": "49 a 50 m", "altura_hidrometro_barranqueras": "7,2 a 8,2 m", "color": "#90DC90", "area_ha": 33.13}, "geometry": {"type": "Polygon", "coordinates": [[[-58.974291, -27.4155563], [-58.9751772, -27.4154505], [-58.9772833, -27.4156268], [-58.9794786, -27.416152], [-58.9806595, -27.4160402], [-58.9826426, -27.4171836], [-58.9837006, -27.418039], [-58.9844818, -27.4181985], [-58.9864987, -27.4180258], [-58.9878647, -27.4183487], [-58.9882966, -27.4187345], [-58.9884361, -27.4190386], [-58.9871803, -27.4201605], [-58.9866143, -27.4211806], [-58.9862972, -27.4220641], [-58.9863482, -27.4239048], [-58.9864787, -27.4245599], [-58.9868514, -27.4253416], [-58.9868357, -27.4259558], [-58.9864338, -27.4263148], [-58.9859427, -27.4263249], [-58.9853189, -27.4257675], [-58.984575, -27.4222308], [-58.9843875, -27.4218839], [-58.9838597, -27.4214123], [-58.9832771, -27.4211611], [-58.9827013, -27.4206466], [-58.9825183, -27.4201242], [-58.9824928, -27.4192038], [-58.9823143, -27.4185059], [-58.9817977, -27.4175955], [-58.9812698, -27.417124], [-58.9794741, -27.4163275], [-58.978195, -27.4164413], [-58.9752507, -27.4164137], [-58.9747161, -27.4162054], [-58.9743802, -27.4159053], [-58.974291, -27.4155563]]]}}, {"type": "Feature", "properties": {"id": 36, "rango": "49 a 50 m", "cota_mop": "49 a 50 m", "altura_hidrometro_barranqueras": "7,2 a 8,2 m", "color": "#90DC90", "area_ha": 4.88}, "geometry": {"type": "Polygon", "coordinates": [[[-58.9686171, -27.4205396], [-58.9690077, -27.4206193], [-58.9692476, -27.4208337], [-58.9691202, -27.4219764], [-58.96934, -27.4229804], [-58.9693242, -27.4235947], [-58.9690206, -27.4239517], [-58.9685295, -27.4239617], [-58.9678487, -27.4237125], [-58.9672706, -27.4232858], [-58.9671837, -27.4228491], [-58.9679349, -27.4222637], [-58.968195, -27.4216883], [-58.9683134, -27.4208966], [-58.9686171, -27.4205396]]]}}, {"type": "Feature", "properties": {"id": 37, "rango": "49 a 50 m", "cota_mop": "49 a 50 m", "altura_hidrometro_barranqueras": "7,2 a 8,2 m", "color": "#90DC90", "area_ha": 2.8}, "geometry": {"type": "Polygon", "coordinates": [[[-58.964369, -27.421591], [-58.9649148, -27.4213606], [-58.9656023, -27.4213466], [-58.966041, -27.4214692], [-58.9663746, -27.421857], [-58.9664069, -27.4225141], [-58.9651691, -27.4229341], [-58.9647282, -27.4228992], [-58.9645385, -27.42264], [-58.964369, -27.421591]]]}}, {"type": "Feature", "properties": {"id": 38, "rango": "49 a 50 m", "cota_mop": "49 a 50 m", "altura_hidrometro_barranqueras": "7,2 a 8,2 m", "color": "#90DC90", "area_ha": 112.71}, "geometry": {"type": "Polygon", "coordinates": [[[-58.9030405, -27.4397697], [-58.9035406, -27.4394087], [-58.9044748, -27.4393458], [-58.9053543, -27.4395032], [-58.9069603, -27.4400405], [-58.9089157, -27.4403513], [-58.911725, -27.4398993], [-58.9121815, -27.4393199], [-58.9124049, -27.438263], [-58.9123794, -27.4373426], [-58.9139989, -27.4373534], [-58.9140859, -27.4377901], [-58.9143738, -27.4380474], [-58.9145043, -27.4387024], [-58.9150689, -27.4396556], [-58.9157384, -27.4403436], [-58.9170041, -27.4407562], [-58.9190644, -27.4408019], [-58.919551, -27.4409673], [-58.9201268, -27.4414818], [-58.9202528, -27.4423124], [-58.9198263, -27.4436366], [-58.9198931, -27.444863], [-58.9201765, -27.4452958], [-58.9206564, -27.4457245], [-58.9210447, -27.4458919], [-58.9219287, -27.4458739], [-58.9229656, -27.4456335], [-58.9236352, -27.4463214], [-58.9243437, -27.4474032], [-58.9247097, -27.4484481], [-58.9252743, -27.4494013], [-58.9252039, -27.4502359], [-58.9247383, -27.4511663], [-58.9242862, -27.4515702], [-58.9231511, -27.4518126], [-58.9218832, -27.4514877], [-58.9214971, -27.4512325], [-58.9213666, -27.4505774], [-58.9214716, -27.4503121], [-58.9225834, -27.4490616], [-58.9225031, -27.4483616], [-58.9217676, -27.4483328], [-58.9208267, -27.448659], [-58.9197485, -27.4485933], [-58.9190722, -27.4481686], [-58.9185099, -27.4471277], [-58.91803, -27.446699], [-58.9173515, -27.446362], [-58.9147198, -27.4456264], [-58.9115423, -27.4451213], [-58.9104229, -27.4447495], [-58.9075145, -27.4433179], [-58.9043774, -27.4412333], [-58.9031665, -27.4406003], [-58.9029791, -27.4402533], [-58.9030405, -27.4397697]]]}}]}