{
  "type": "FeatureCollection",
  "name": "sample-layer",
  "features": [
    {
      "type": "Feature",
      "id": "zone-a",
      "properties": {
        "name": "Zona A",
        "layer": "sample"
      },
      "geometry": {
        "type": "Polygon",
        "coordinates": [
          [
            [-74.03, 40.70],
            [-74.01, 40.70],
            [-74.01, 40.68],
            [-74.03, 40.68],
            [-74.03, 40.70]
          ]
        ]
      }
    },
    {
      "type": "Feature",
      "id": "zone-b",
      "properties": {
        "name": "Zona B",
        "layer": "sample"
      },
      "geometry": {
        "type": "Polygon",
        "coordinates": [
          [
            [-74.00, 40.72],
            [-73.98, 40.72],
            [-73.98, 40.70],
            [-74.00, 40.70],
            [-74.00, 40.72]
          ]
        ]
      }
    }
  ]
}
